EVENT_NAME: None
EVENT_ID: INT-37989201
EVENT_DATE_YYYYMMDD: 20240327
EVENT_TIME_HHMMSS: 211936
EVENT_LATITUDE_DEGREE: 46.3583
EVENT_LONGITUDE_DEGREE: 12.8308
EVENT_DEPTH_KM: 7.0
HYPOCENTER_REFERENCE: INGV-BULLETIN
MAGNITUDE_W: 4.1
MAGNITUDE_W_REFERENCE: INGV-TERREMOTI
MAGNITUDE_L: 
MAGNITUDE_L_REFERENCE: 
FOCAL_MECHANISM: Thrust faulting
NETWORK: IV
STATION_CODE: STAL
STATION_NAME: Staligial
STATION_LATITUDE_DEGREE: 46.260100
STATION_LONGITUDE_DEGREE: 12.710400
STATION_ELEVATION_M: 625
LOCATION: 
SENSOR_DEPTH_M: 0.0
VS30_M/S: 
SITE_CLASSIFICATION_EC8: B (inferred from geology)
MORPHOLOGIC_CLASSIFICATION: 
EPICENTRAL_DISTANCE_KM: 14.3
EARTHQUAKE_BACKAZIMUTH_DEGREE: 220.4
DATE_TIME_FIRST_SAMPLE_YYYYMMDD_HHMMSS: 20240327_211919.650
DATE_TIME_FIRST_SAMPLE_PRECISION: milliseconds
SAMPLING_INTERVAL_S: 0.005000
NDATA: 20692
DURATION_S: 103.460
STREAM: HHE
UNITS: cm/s^2
INSTRUMENT: HH
INSTRUMENT_ANALOG/DIGITAL: D
INSTRUMENTAL_FREQUENCY_HZ: 
INSTRUMENTAL_DAMPING: 
FULL_SCALE_G: 
N_BIT_DIGITAL_CONVERTER: 
PGA_CM/S^2: 18.598920
TIME_PGA_S: 23.305000
BASELINE_CORRECTION: BASELINE REMOVED
FILTER_TYPE: BUTTERWORTH
FILTER_ORDER: 2
LOW_CUT_FREQUENCY_HZ: 0.100
HIGH_CUT_FREQUENCY_HZ: 40.000
LATE/NORMAL_TRIGGERED: NT
DATABASE_VERSION: 0.5
HEADER_FORMAT: DYNA 1.2
DATA_TYPE: ACCELERATION
PROCESSING: manual (Paolucci et al., 2011)
DATA_TIMESTAMP_YYYYMMDD_HHMMSS: 20240521_175642.331
DATA_LICENSE: D (network default license)
DATA_CITATION: Luzi L., Lanzano G., Felicetta C., D Amico M. C., Russo E., Sgobba S., Pacor, F., & ORFEUS Working Group 5 (2020). Engineering Strong Motion Database (ESM) (Version 2.0). Istituto Nazionale di Geofisica e Vulcanologia (INGV). https://doi.org/10.13127/ESM.2
DATA_CREATOR: ESM working group
ORIGINAL_DATA_MEDIATOR_CITATION: webservices.ingv.it
ORIGINAL_DATA_MEDIATOR: webservices.ingv.it
ORIGINAL_DATA_CREATOR_CITATION: INGV Seismological Data Centre. (1997). Rete Sismica Nazionale (RSN). Istituto Nazionale di Geofisica e Vulcanologia (INGV), Italy. https://doi.org/10.13127/SD/X0FXnH7QfY http://www.fdsn.org/networks/detail/IV/
ORIGINAL_DATA_CREATOR: network: IV (Italian National Seismic Network (INSN)); owner: Istituto Nazionale di Geofisica e Vulcanologia (INGV)
USER1: 
USER2: 
USER3: 
USER4: 
USER5: 
[...]
0.000181
0.000233
0.000312
0.000369
0.000391
0.000373
0.000295
0.000158
0.000012
-0.000087
-0.000131
-0.000142
-0.000141
-0.000125
-0.000086
-0.000039
-0.000044
-0.000125
-0.000222
-0.000264
-0.000250
-0.000222
-0.000198
-0.000147
-0.000016
0.000195
0.000390
0.000470
0.000425
0.000320
0.000228
0.000192
0.000212
0.000261
0.000294
0.000267
0.000153
-0.000031
-0.000208
-0.000298
-0.000269
-0.000151
-0.000012
0.000092
0.000149
0.000173
0.000174
0.000152
0.000113
0.000075
0.000067
0.000101
0.000149
0.000166
0.000125
0.000034
-0.000062
-0.000116
-0.000104
-0.000029
0.000084
0.000205
0.000309
0.000378
0.000400
0.000373
0.000308
0.000232
0.000180
0.000174
0.000205
0.000251
0.000289
0.000293
0.000234
0.000107
-0.000043
-0.000160
-0.000221
-0.000242
-0.000252
-0.000250
-0.000196
-0.000074
0.000064
0.000143
0.000143
0.000082
-0.000006
-0.000079
-0.000095
-0.000034
0.000078
0.000179
0.000214
0.000188
0.000169
0.000210
0.000268
0.000284
0.000255
0.000211
0.000163
0.000093
-0.000023
-0.000164
-0.000250
-0.000227
-0.000140
-0.000074
-0.000072
-0.000120
-0.000162
-0.000159
-0.000117
-0.000059
0.000012
0.000099
0.000193
0.000274
0.000319
0.000324
0.000304
0.000275
0.000231
0.000168
0.000102
0.000072
0.000116
0.000232
0.000358
0.000415
0.000369
0.000242
0.000104
0.000013
-0.000024
-0.000030
-0.000021
0.000002
0.000040
0.000088
0.000131
0.000165
0.000199
0.000228
0.000203
0.000084
-0.000108
-0.000298
-0.000401
-0.000381
-0.000278
-0.000159
-0.000057
0.000019
0.000064
0.000095
0.000152
0.000257
0.000372
0.000436
0.000419
0.000350
0.000307
0.000335
0.000388
0.000405
0.000381
0.000338
0.000274
0.000181
0.000077
0.000001
-0.000015
0.000012
0.000014
-0.000040
-0.000089
-0.000066
0.000017
0.000089
0.000094
0.000032
-0.000049
-0.000109
-0.000147
-0.000168
-0.000134
-0.000014
0.000170
0.000359
0.000498
0.000571
0.000597
0.000590
0.000531
0.000405
0.000246
0.000114
0.000051
0.000067
0.000140
0.000235
0.000308
0.000320
0.000251
0.000125
0.000014
-0.000028
-0.000025
-0.000034
-0.000070
-0.000098
-0.000065
0.000040
0.000160
0.000240
0.000285
0.000330
0.000370
0.000388
0.000380
0.000357
0.000327
0.000275
0.000178
0.000046
-0.000058
-0.000078
-0.000025
0.000054
0.000129
0.000186
0.000213
0.000205
0.000179
0.000162
0.000179
0.000228
0.000276
0.000298
0.000297
0.000281
0.000238
0.000162
0.000087
0.000059
0.000094
0.000174
0.000260
0.000318
0.000340
0.000332
0.000300
0.000251
0.000198
0.000147
0.000092
0.000042
0.000032
0.000085
0.000172
0.000247
0.000285
0.000289
0.000270
0.000237
0.000192
0.000146
0.000128
0.000159
0.000227
0.000307
0.000377
0.000417
0.000404
0.000329
0.000216
0.000104
0.000027
-0.000007
-0.000007
0.000014
0.000056
0.000127
0.000218
0.000309
0.000370
0.000394
0.000410
0.000445
0.000486
0.000492
0.000437
0.000348
0.000304
0.000359
0.000478
0.000589
0.000648
0.000647
0.000591
0.000490
0.000365
0.000241
0.000149
0.000099
0.000076
0.000074
0.000111
0.000186
0.000242
0.000222
0.000129
0.000003
-0.000121
-0.000225
-0.000285
-0.000276
-0.000183
-0.000043
0.000057
0.000063
0.000022
0.000001
0.000001
0.000001
0.000018
0.000097
0.000261
0.000473
0.000646
0.000727
0.000754
0.000784
0.000818
0.000835
0.000853
0.000877
0.000853
0.000717
0.000472
0.000213
0.000081
0.000135
0.000271
0.000364
0.000398
0.000408
0.000391
0.000321
0.000208
0.000099
0.000035
0.000024
0.000029
0.000018
0.000001
-0.000004
-0.000009
-0.000016
0.000011
0.000089
0.000165
0.000179
0.000143
0.000124
0.000189
0.000329
0.000445
0.000445
0.000342
0.000207
0.000101
0.000047
0.000033
0.000039
0.000054
0.000070
0.000080
0.000096
0.000150
0.000260
0.000395
0.000496
0.000515
0.000452
0.000357
0.000288
0.000271
0.000305
0.000381
0.000475
0.000546
0.000573
0.000577
0.000591
0.000618
0.000629
0.000583
0.000471
0.000330
0.000210
0.000137
0.000111
0.000127
0.000170
0.000214
0.000237
0.000224
0.000179
0.000110
0.000044
0.000016
0.000037
0.000065
0.000056
0.000013
-0.000026
-0.000019
0.000036
0.000091
0.000116
0.000148
0.000218
0.000297
0.000345
0.000372
0.000413
0.000475
0.000539
0.000579
0.000581
0.000554
0.000502
0.000414
0.000306
0.000237
0.000241
0.000275
0.000290
0.000313
0.000385
0.000493
0.000573
0.000565
0.000470
0.000359
0.000288
0.000237
0.000179
0.000146
0.000179
0.000254
0.000321
0.000357
0.000368
0.000368
0.000357
0.000330
0.000298
0.000301
0.000347
0.000383
0.000357
0.000287
0.000209
0.000122
0.000018
-0.000066
-0.000064
0.000068
0.000282
0.000440
0.000435
0.000305
0.000173
0.000137
0.000211
0.000331
0.000425
0.000476
0.000489
0.000451
0.000371
0.000305
0.000307
0.000369
0.000432
0.000435
0.000380
0.000344
0.000362
0.000354
0.000246
0.000103
0.000044
0.000116
0.000253
0.000332
0.000293
0.000205
0.000152
0.000123
0.000093
0.000101
0.000190
0.000317
0.000404
0.000414
0.000377
0.000357
0.000378
0.000388
0.000346
0.000300
0.000304
0.000338
0.000352
0.000334
0.000310
0.000316
0.000352
0.000381
0.000378
0.000368
0.000389
0.000443
0.000483
0.000452
0.000333
0.000187
0.000099
0.000106
0.000190
0.000290
0.000355
0.000378
0.000378
0.000372
0.000366
0.000360
0.000350
0.000330
0.000291
0.000234
0.000178
0.000164
0.000216
0.000305
0.000374
0.000381
0.000334
0.000290
0.000291
0.000308
0.000301
0.000274
0.000275
0.000337
0.000432
0.000467
0.000396
0.000298
0.000274
0.000326
0.000371
0.000330
0.000199
0.000075
0.000044
0.000100
0.000202
0.000347
0.000548
0.000762
0.000899
0.000865
0.000646
0.000347
0.000099
-0.000042
-0.000077
-0.000023
0.000098
0.000253
0.000404
0.000518
0.000571
0.000550
0.000457
0.000312
0.000163
0.000074
0.000070
0.000102
0.000107
0.000069
0.000016
-0.000018
-0.000014
0.000020
0.000072
0.000142
0.000229
0.000329
0.000438
0.000552
0.000636
0.000621
0.000483
0.000304
0.000207
0.000256
0.000407
0.000525
0.000514
0.000412
0.000326
0.000324
0.000401
0.000493
0.000546
0.000563
0.000570
0.000568
0.000535
0.000444
0.000301
0.000156
0.000067
0.000058
0.000105
0.000154
0.000164
0.000147
0.000148
0.000202
0.000290
0.000339
0.000287
0.000160
0.000046
0.000042
0.000172
0.000355
0.000475
0.000472
0.000372
0.000268
0.000232
0.000253
0.000273
0.000247
0.000183
0.000129
0.000121
0.000138
0.000148
0.000156
0.000190
0.000266
0.000367
0.000444
0.000449
0.000376
0.000267
0.000205
0.000260
0.000439
0.000673
0.000848
0.000883
0.000788
0.000624
0.000444
0.000274
0.000130
0.000033
0.000017
0.000102
0.000258
0.000410
0.000464
0.000372
0.000178
-0.000010
-0.000089
-0.000029
0.000096
0.000193
0.000231
0.000242
0.000263
0.000296
0.000287
0.000207
0.000107
0.000067
0.000122
0.000240
0.000350
0.000409
0.000437
0.000453
0.000422
0.000325
0.000221
0.000180
0.000207
0.000251
0.000261
0.000235
0.000221
0.000244
0.000258
0.000232
0.000222
0.000277
0.000356
0.000395
0.000404
0.000427
0.000461
0.000454
0.000356
0.000189
0.000066
0.000065
0.000136
0.000199
0.000250
0.000297
0.000284
0.000157
-0.000034
-0.000147
-0.000045
0.000270
0.000600
0.000733
0.000639
0.000432
0.000249
0.000153
0.000096
0.000028
-0.000016
0.000037
0.000196
0.000355
0.000346
0.000122
-0.000152
-0.000357
-0.000636
-0.001206
-0.002207
-0.003994
-0.007428
-0.013596
-0.023283
-0.036460
-0.052093
-0.068531
-0.083687
-0.094425
-0.096557
-0.087058
-0.066244
-0.037540
-0.006490
0.019831
0.033318
0.026211
-0.006653
-0.065004
-0.142076
-0.228301
-0.314755
-0.391706
-0.446638
-0.466493
-0.441784
-0.370656
-0.261698
-0.132699
-0.005795
0.102479
0.188825
0.259334
0.321294
0.376498
0.420215
0.450082
0.471288
0.487299
0.496806
0.513854
0.574272
0.687951
0.796762
0.808781
0.662699
0.374770
0.032928
-0.301159
-0.652173
-1.028045
-1.329197
-1.450165
-1.411295
-1.339585
-1.351375
-1.396481
-1.230136
-0.697022
0.031491
0.644746
0.982933
1.119307
1.271941
1.561993
1.870337
2.036569
2.068145
2.043326
1.937111
1.610800
0.929023
-0.040720
-0.956401
-1.493108
-1.633218
-1.581953
-1.538215
-1.524855
-1.372217
-0.962275
-0.425623
0.007027
0.216932
0.213651
0.062955
-0.175405
-0.465601
-0.752909
-0.937601
-0.930080
-0.696894
-0.218245
0.533230
1.484365
2.379015
2.907125
2.887728
2.353003
1.539142
0.748892
0.203026
-0.025362
-0.020125
0.044295
0.001424
-0.201043
-0.455463
-0.608095
-0.587833
-0.422293
-0.210870
-0.094785
-0.207956
-0.582818
-1.105185
-1.638889
-2.158577
-2.716168
-3.317162
-3.789801
-3.792120
-3.124105
-1.979979
-0.748774
0.296842
1.111986
1.833262
2.584623
3.327608
3.926003
4.253753
4.212660
3.728212
2.797952
1.541971
0.175160
-1.069395
-2.047702
-2.768566
-3.316255
-3.735015
-3.970943
-3.896121
-3.458129
-2.789631
-2.100946
-1.521709
-1.042822
-0.538558
0.128494
1.016170
2.099321
3.276042
4.336224
4.972182
4.944895
4.255875
3.149189
2.005636
1.142668
0.655610
0.448354
0.340299
0.184701
-0.055622
-0.335427
-0.582444
-0.738670
-0.790896
-0.787085
-0.825056
-0.978054
-1.221873
-1.442868
-1.504484
-1.359248
-1.095297
-0.794640
-0.400992
0.199363
1.032531
1.969277
2.743313
3.089205
2.875793
2.127750
1.005364
-0.228536
-1.269670
-1.904331
-2.121765
-2.084553
-2.027593
-2.119335
-2.362624
-2.632856
-2.775955
-2.718727
-2.520655
-2.279773
-2.026467
-1.727402
-1.339111
-0.859872
-0.342112
0.169698
0.687364
1.230108
1.767167
2.238797
2.599514
2.829742
2.928938
2.900339
2.733659
2.395850
1.851876
1.141892
0.426871
-0.106906
-0.376591
-0.454104
-0.531546
-0.767787
-1.171404
-1.669340
-2.195568
-2.657914
-2.893329
-2.735923
-2.113383
-1.080349
0.193813
1.480288
2.541960
3.158908
3.172298
2.585811
1.633425
0.685574
0.102585
0.109384
0.701475
1.629852
2.478392
2.904939
2.847285
2.468282
1.998422
1.590504
1.259368
0.979845
0.764282
0.570066
0.217339
-0.490451
-1.612432
-3.052513
-4.602031
-5.986058
-6.898871
-7.052194
-6.264950
-4.614831
-2.521469
-0.575861
0.697045
1.004988
0.400979
-0.699212
-1.618662
-1.765001
-0.977558
0.414286
1.761528
2.535030
2.661235
2.363788
1.887407
1.408521
1.058056
0.971123
1.267526
1.899851
2.563766
2.890600
2.676193
1.915065
0.753785
-0.556541
-1.703570
-2.390721
-2.436699
-1.867458
-0.936968
0.031012
0.820237
1.372137
1.768102
2.154454
2.636809
3.157418
3.455176
3.259619
2.512259
1.404642
0.285069
-0.563380
-1.093049
-1.425768
-1.721886
-2.099814
-2.576167
-3.011163
-3.122273
-2.682463
-1.719515
-0.511263
0.537899
1.111285
1.152805
0.853001
0.546307
0.536874
0.912196
1.433682
1.601419
1.070864
0.010951
-1.058251
-1.633223
-1.551668
-1.111660
-0.768634
-0.803023
-1.284645
-2.134612
-3.142211
-3.997981
-4.452509
-4.463537
-4.156073
-3.697650
-3.168786
-2.518243
-1.699383
-0.783365
0.138707
1.067873
2.031838
2.986865
3.835658
4.486595
4.876665
4.960174
4.686720
4.035839
3.159516
2.440042
2.226304
2.535874
3.036004
3.217050
2.739065
1.685369
0.425478
-0.650449
-1.328384
-1.634446
-1.674853
-1.478137
-1.036728
-0.411881
0.229270
0.660038
0.749429
0.582506
0.387935
0.400726
0.740475
1.310474
1.760407
1.567829
0.375754
-1.677378
-3.962962
-5.619526
-6.079501
-5.450170
-4.273728
-3.111866
-2.299575
-1.871666
-1.701991
-1.650031
-1.583938
-1.388511
-1.044439
-0.672125
-0.398708
-0.213199
0.009299
0.394382
0.931310
1.419353
1.625873
1.460153
0.979980
0.321426
-0.385273
-1.066227
-1.682966
-2.205217
-2.624133
-2.966663
-3.263850
-3.505938
-3.627371
-3.532850
-3.188060
-2.692147
-2.231572
-1.979898
-1.989530
-2.138101
-2.220286
-2.077731
-1.683805
-1.172613
-0.764409
-0.649503
-0.871567
-1.279087
-1.649721
-1.838741
-1.809998
-1.580280
-1.099467
-0.213219
1.146654
2.808413
4.521156
6.175920
7.825158
9.560605
11.297446
12.676367
13.311838
13.048959
11.904123
9.904573
7.041186
3.357676
-0.808154
-4.697193
-7.452466
-8.573087
-8.177415
-6.960350
-5.612101
-4.284631
-2.707051
-0.571956
2.097478
4.822642
7.048531
8.529643
9.273720
9.341835
8.757773
7.516039
5.669901
3.402121
0.998683
-1.211158
-2.914292
-3.872850
-3.985558
-3.321145
-2.069679
-0.480598
1.156281
2.510835
3.227012
2.972137
1.555337
-0.955183
-4.196555
-7.532165
-10.165747
-11.312174
-10.448426
-7.561398
-3.244969
1.400208
5.240445
7.586630
8.303782
7.712660
6.326692
4.622689
2.989132
1.709814
0.885534
0.372212
-0.132186
-0.937874
-2.212496
-3.883648
-5.685265
-7.271810
-8.372082
-8.899584
-8.908606
-8.482717
-7.608652
-6.115629
-3.802008
-0.629335
3.118007
6.795243
9.644768
11.104227
10.978604
9.465920
6.962404
3.875455
0.626861
-2.312542
-4.511810
-5.713655
-5.911803
-5.343967
-4.342391
-3.194133
-2.137855
-1.373619
-0.977190
-0.819867
-0.648050
-0.262188
0.257930
0.461020
-0.173579
-1.843006
-4.230981
-6.560830
-8.049007
-8.362908
-7.696639
-6.620097
-5.732602
-5.360778
-5.516966
-5.967229
-6.359489
-6.377729
-5.919954
-5.200591
-4.596311
-4.390829
-4.540007
-4.581692
-3.895861
-2.039105
1.070656
5.104849
9.468956
13.490194
16.571280
18.314180
18.598920
17.620500
15.813974
13.705419
11.689463
9.872555
8.169222
6.485697
4.859760
3.486005
2.533147
1.989218
1.752009
1.751742
1.915923
2.111324
2.209416
2.178343
2.064381
1.866971
1.346781
0.041675
-2.202450
-4.823487
-6.965409
-8.089510
-8.157682
-7.474795
-6.235020
-4.278566
-1.548029
1.458774
3.949386
5.318044
5.404696
4.542282
3.337682
2.391690
2.062454
2.300935
2.673664
2.537960
1.424396
-0.671293
-3.419765
-6.389823
-9.139461
-11.257009
-12.460521
-12.708556
-12.213389
-11.347184
-10.399622
-9.407031
-8.290294
-7.035026
-5.677464
-4.225306
-2.653286
-0.974919
0.629863
1.781461
2.143045
1.672389
0.614258
-0.620918
-1.602000
-1.992285
-1.612622
-0.504663
1.008333
2.354782
3.004037
2.778018
1.924734
1.004546
0.544062
0.722572
1.363319
2.081566
2.535191
2.627276
2.509335
2.495660
2.919468
3.985709
5.657533
7.596109
9.241520
9.973239
9.354370
7.355411
4.406374
1.292868
-1.198764
-2.639309
-3.061927
-2.889690
-2.650605
-2.699539
-3.129514
-3.767358
-4.236955
-4.092861
-3.084439
-1.363269
0.616986
2.332576
3.435522
3.881888
3.783347
3.234970
2.330256
1.233476
0.179770
-0.583372
-0.901494
-0.795091
-0.432187
-0.041165
0.217352
0.337999
0.410613
0.501988
0.551344
0.351367
-0.282343
-1.337852
-2.613038
-3.811149
-4.672896
-5.067043
-4.965066
-4.394703
-3.437127
-2.228077
-0.913343
0.403039
1.665809
2.838015
3.838703
4.524061
4.798913
4.728871
4.506737
4.336612
4.279413
4.172399
3.769052
2.930059
1.717729
0.391031
-0.747862
-1.518508
-1.918575
-2.102450
-2.268819
-2.550040
-2.981728
-3.515067
-4.061236
-4.532883
-4.857691
-4.976426
-4.828074
-4.338282
-3.436840
-2.107321
-0.473101
1.164065
2.453774
3.173671
3.341227
3.231282
3.215299
3.566592
4.347106
5.372905
6.311714
6.827326
6.724678
6.036342
4.959942
3.763113
2.726304
2.086548
1.939339
2.157971
2.435240
2.401776
1.805199
0.628275
-0.994100
-2.887582
-4.847164
-6.627719
-8.011758
-8.896140
-9.317966
-9.422597
-9.356091
-9.175960
-8.870779
-8.403468
-7.717850
-6.748527
-5.485075
-4.032532
-2.589067
-1.378224
-0.550524
-0.103701
0.113449
0.343214
0.798889
1.556040
2.539438
3.571860
4.480913
5.172427
5.583985
5.636441
5.295667
4.658018
3.956583
3.497893
3.511918
4.018537
4.825612
5.599650
6.004868
5.844382
5.136206
4.111239
3.067519
2.215885
1.638666
1.308159
1.140839
1.039398
0.893306
0.579330
0.002106
-0.856127
-1.914181
-2.998933
-3.903480
-4.464984
-4.638036
-4.527733
-4.314765
-4.147303
-4.059904
-3.948087
-3.658806
-3.104788
-2.324541
-1.483296
-0.779805
-0.346403
-0.213783
-0.308518
-0.477226
-0.528234
-0.306623
0.232424
1.002351
1.813510
2.474575
2.879184
2.991286
2.805348
2.340932
1.650840
0.816380
-0.064679
-0.890309
-1.565672
-2.015796
-2.198436
-2.109435
-1.773597
-1.217951
-0.474747
0.339246
0.973731
1.159199
0.766861
-0.105331
-1.147305
-2.024425
-2.567824
-2.804387
-2.898120
-3.023741
-3.251042
-3.514426
-3.645987
-3.491652
-3.017327
-2.306519
-1.496628
-0.677845
0.161507
1.048096
1.917414
2.608694
2.930150
2.786541
2.275475
1.642941
1.177736
1.085143
1.391571
1.949522
2.498634
2.787690
2.695368
2.281452
1.770112
1.415826
1.353606
1.532573
1.734055
1.723766
1.406261
0.855901
0.273600
-0.125371
-0.217696
-0.008618
0.372208
0.724532
0.851905
0.647172
0.151608
-0.476576
-1.036875
-1.383891
-1.497266
-1.457701
-1.383157
-1.353687
-1.363587
-1.349392
-1.240340
-0.996986
-0.633079
-0.211035
0.171502
0.403852
0.394080
0.116613
-0.350681
-0.843936
-1.164865
-1.168438
-0.841123
-0.309137
0.207594
0.515315
0.557733
0.427176
0.313207
0.389051
0.713187
1.223818
1.774806
2.196519
2.360140
2.231989
1.899323
1.519183
1.237451
1.113080
1.086511
1.051016
0.934288
0.711253
0.388639
-0.009471
-0.451002
-0.905510
-1.354317
-1.794088
-2.228181
-2.640801
-2.989971
-3.254497
-3.463956
-3.636844
-3.715715
-3.596567
-3.198621
-2.526834
-1.692899
-0.849587
-0.120423
0.412268
0.713724
0.837698
0.942251
1.194761
1.660575
2.277135
2.893926
3.381096
3.709961
3.908098
3.988394
3.936750
3.732554
3.379138
2.919768
2.416454
1.920907
1.462063
1.048382
0.687521
0.402414
0.223571
0.173547
0.254289
0.437582
0.661220
0.834086
0.863992
0.693785
0.328653
-0.163160
-0.705441
-1.264547
-1.834667
-2.402263
-2.927757
-3.347509
-3.601721
-3.659479
-3.517309
-3.193257
-2.733789
-2.219396
-1.748006
-1.409377
-1.257751
-1.285597
-1.409158
-1.479230
-1.352206
-0.972222
-0.410353
0.148602
0.511335
0.584431
0.400674
0.096316
-0.158365
-0.229984
-0.060682
0.318509
0.813810
1.307746
1.695686
1.903744
1.868542
1.523531
0.837956
-0.131953
-1.226856
-2.208076
-2.846822
-3.014759
-2.713198
-2.063754
-1.253643
-0.468573
0.168411
0.634415
0.980939
1.280549
1.564854
1.788217
1.867336
1.746617
1.451373
1.105363
0.871959
0.882378
1.200784
1.812945
2.633688
3.512460
4.237526
4.567255
4.332043
3.532702
2.344456
1.060964
-0.024502
-0.731805
-1.034381
-1.054636
-0.998189
-1.061557
-1.329838
-1.717293
-2.040087
-2.135601
-1.964090
-1.648148
-1.375889
-1.280948
-1.392046
-1.632263
-1.872683
-1.992451
-1.917557
-1.646533
-1.254403
-0.871232
-0.611886
-0.511053
-0.525067
-0.568329
-0.570050
-0.516141
-0.438798
-0.388129
-0.402487
-0.479947
-0.557570
-0.516516
-0.250731
0.258652
0.925766
1.587336
2.085417
2.341700
2.361047
2.205964
1.962530
1.709236
1.494504
1.326340
1.188611
1.061843
0.932486
0.797248
0.667926
0.576355
0.569785
0.690121
0.928060
1.195156
1.370669
1.369679
1.184905
0.893009
0.599763
0.378149
0.245479
0.168002
0.094856
