EVENT_NAME: None
EVENT_ID: INT-37989201
EVENT_DATE_YYYYMMDD: 20240327
EVENT_TIME_HHMMSS: 211936
EVENT_LATITUDE_DEGREE: 46.3583
EVENT_LONGITUDE_DEGREE: 12.8308
EVENT_DEPTH_KM: 7.0
HYPOCENTER_REFERENCE: INGV-BULLETIN
MAGNITUDE_W: 4.1
MAGNITUDE_W_REFERENCE: INGV-TERREMOTI
MAGNITUDE_L: 
MAGNITUDE_L_REFERENCE: 
FOCAL_MECHANISM: Thrust faulting
NETWORK: IV
STATION_CODE: STAL
STATION_NAME: Staligial
STATION_LATITUDE_DEGREE: 46.260100
STATION_LONGITUDE_DEGREE: 12.710400
STATION_ELEVATION_M: 625
LOCATION: 
SENSOR_DEPTH_M: 0.0
VS30_M/S: 
SITE_CLASSIFICATION_EC8: B (inferred from geology)
MORPHOLOGIC_CLASSIFICATION: 
EPICENTRAL_DISTANCE_KM: 14.3
EARTHQUAKE_BACKAZIMUTH_DEGREE: 220.4
DATE_TIME_FIRST_SAMPLE_YYYYMMDD_HHMMSS: 20240327_211919.650
DATE_TIME_FIRST_SAMPLE_PRECISION: milliseconds
SAMPLING_INTERVAL_S: 0.005000
NDATA: 20692
DURATION_S: 103.460
STREAM: HHN
UNITS: cm/s^2
INSTRUMENT: HH
INSTRUMENT_ANALOG/DIGITAL: D
INSTRUMENTAL_FREQUENCY_HZ: 
INSTRUMENTAL_DAMPING: 
FULL_SCALE_G: 
N_BIT_DIGITAL_CONVERTER: 
PGA_CM/S^2: -24.667908
TIME_PGA_S: 23.405000
BASELINE_CORRECTION: BASELINE REMOVED
FILTER_TYPE: BUTTERWORTH
FILTER_ORDER: 2
LOW_CUT_FREQUENCY_HZ: 0.100
HIGH_CUT_FREQUENCY_HZ: 40.000
LATE/NORMAL_TRIGGERED: NT
DATABASE_VERSION: 0.5
HEADER_FORMAT: DYNA 1.2
DATA_TYPE: ACCELERATION
PROCESSING: manual (Paolucci et al., 2011)
DATA_TIMESTAMP_YYYYMMDD_HHMMSS: 20240521_175642.478
DATA_LICENSE: D (network default license)
DATA_CITATION: Luzi L., Lanzano G., Felicetta C., D Amico M. C., Russo E., Sgobba S., Pacor, F., & ORFEUS Working Group 5 (2020). Engineering Strong Motion Database (ESM) (Version 2.0). Istituto Nazionale di Geofisica e Vulcanologia (INGV). https://doi.org/10.13127/ESM.2
DATA_CREATOR: ESM working group
ORIGINAL_DATA_MEDIATOR_CITATION: webservices.ingv.it
ORIGINAL_DATA_MEDIATOR: webservices.ingv.it
ORIGINAL_DATA_CREATOR_CITATION: INGV Seismological Data Centre. (1997). Rete Sismica Nazionale (RSN). Istituto Nazionale di Geofisica e Vulcanologia (INGV), Italy. https://doi.org/10.13127/SD/X0FXnH7QfY http://www.fdsn.org/networks/detail/IV/
ORIGINAL_DATA_CREATOR: network: IV (Italian National Seismic Network (INSN)); owner: Istituto Nazionale di Geofisica e Vulcanologia (INGV)
USER1: 
USER2: 
USER3: 
USER4: 
USER5: 
[...]
-0.000014
0.000054
0.000056
0.000026
0.000034
0.000108
0.000202
0.000231
0.000160
0.000061
0.000031
0.000091
0.000192
0.000269
0.000281
0.000233
0.000181
0.000192
0.000294
0.000425
0.000494
0.000459
0.000356
0.000284
0.000284
0.000282
0.000196
0.000061
-0.000032
-0.000034
0.000034
0.000102
0.000122
0.000107
0.000085
0.000051
0.000000
-0.000041
-0.000045
-0.000028
-0.000020
-0.000031
-0.000041
-0.000015
0.000055
0.000131
0.000161
0.000129
0.000070
0.000057
0.000124
0.000216
0.000259
0.000234
0.000197
0.000233
0.000364
0.000502
0.000558
0.000532
0.000470
0.000379
0.000248
0.000094
-0.000015
0.000014
0.000193
0.000397
0.000485
0.000433
0.000311
0.000202
0.000137
0.000078
-0.000002
-0.000066
-0.000059
0.000014
0.000097
0.000132
0.000112
0.000092
0.000123
0.000195
0.000258
0.000281
0.000286
0.000329
0.000429
0.000525
0.000546
0.000500
0.000433
0.000370
0.000288
0.000155
-0.000011
-0.000114
-0.000074
0.000076
0.000240
0.000339
0.000361
0.000351
0.000362
0.000400
0.000443
0.000460
0.000429
0.000341
0.000203
0.000048
-0.000076
-0.000122
-0.000076
0.000029
0.000147
0.000254
0.000340
0.000390
0.000382
0.000296
0.000164
0.000077
0.000098
0.000183
0.000252
0.000281
0.000307
0.000379
0.000498
0.000593
0.000601
0.000541
0.000470
0.000421
0.000398
0.000397
0.000409
0.000418
0.000406
0.000369
0.000312
0.000253
0.000214
0.000212
0.000247
0.000299
0.000354
0.000417
0.000482
0.000510
0.000453
0.000301
0.000111
-0.000015
-0.000030
-0.000007
-0.000027
-0.000063
-0.000037
0.000080
0.000241
0.000363
0.000402
0.000395
0.000386
0.000358
0.000286
0.000205
0.000180
0.000243
0.000368
0.000486
0.000547
0.000567
0.000590
0.000627
0.000654
0.000637
0.000579
0.000538
0.000550
0.000573
0.000547
0.000483
0.000443
0.000474
0.000544
0.000541
0.000400
0.000194
0.000035
-0.000045
-0.000065
-0.000026
0.000083
0.000263
0.000475
0.000651
0.000745
0.000767
0.000738
0.000646
0.000495
0.000345
0.000262
0.000253
0.000278
0.000303
0.000319
0.000350
0.000398
0.000416
0.000359
0.000241
0.000119
0.000053
0.000076
0.000180
0.000330
0.000483
0.000598
0.000650
0.000637
0.000588
0.000560
0.000607
0.000731
0.000859
0.000912
0.000880
0.000803
0.000716
0.000630
0.000533
0.000426
0.000333
0.000274
0.000226
0.000166
0.000113
0.000105
0.000166
0.000279
0.000396
0.000481
0.000534
0.000564
0.000552
0.000483
0.000370
0.000255
0.000178
0.000165
0.000214
0.000310
0.000427
0.000530
0.000575
0.000550
0.000490
0.000434
0.000378
0.000312
0.000260
0.000256
0.000309
0.000390
0.000455
0.000501
0.000575
0.000683
0.000722
0.000615
0.000429
0.000300
0.000302
0.000399
0.000485
0.000498
0.000490
0.000510
0.000507
0.000408
0.000228
0.000056
-0.000023
0.000019
0.000139
0.000281
0.000434
0.000606
0.000783
0.000925
0.000974
0.000900
0.000731
0.000556
0.000478
0.000523
0.000589
0.000564
0.000448
0.000321
0.000253
0.000242
0.000212
0.000131
0.000082
0.000136
0.000234
0.000255
0.000153
-0.000012
-0.000108
-0.000039
0.000172
0.000438
0.000686
0.000869
0.000956
0.000952
0.000894
0.000818
0.000714
0.000563
0.000384
0.000242
0.000225
0.000352
0.000531
0.000640
0.000630
0.000511
0.000313
0.000084
-0.000108
-0.000191
-0.000126
0.000063
0.000288
0.000462
0.000560
0.000600
0.000614
0.000623
0.000630
0.000615
0.000548
0.000441
0.000370
0.000399
0.000514
0.000649
0.000759
0.000840
0.000902
0.000917
0.000799
0.000539
0.000283
0.000199
0.000304
0.000482
0.000578
0.000514
0.000345
0.000168
0.000035
-0.000040
-0.000041
0.000026
0.000114
0.000166
0.000167
0.000139
0.000113
0.000106
0.000113
0.000128
0.000170
0.000254
0.000366
0.000467
0.000518
0.000508
0.000471
0.000468
0.000548
0.000707
0.000877
0.000955
0.000870
0.000638
0.000373
0.000198
0.000154
0.000195
0.000246
0.000282
0.000359
0.000506
0.000638
0.000644
0.000507
0.000305
0.000145
0.000086
0.000107
0.000166
0.000258
0.000381
0.000496
0.000576
0.000637
0.000686
0.000671
0.000557
0.000397
0.000293
0.000302
0.000380
0.000394
0.000267
0.000079
-0.000051
-0.000108
-0.000134
-0.000145
-0.000123
-0.000050
0.000057
0.000145
0.000183
0.000213
0.000284
0.000399
0.000523
0.000624
0.000689
0.000720
0.000726
0.000719
0.000702
0.000673
0.000628
0.000566
0.000508
0.000496
0.000547
0.000615
0.000631
0.000552
0.000396
0.000231
0.000128
0.000105
0.000144
0.000215
0.000281
0.000306
0.000285
0.000258
0.000278
0.000350
0.000428
0.000438
0.000357
0.000256
0.000222
0.000276
0.000378
0.000461
0.000483
0.000440
0.000347
0.000219
0.000085
-0.000004
-0.000005
0.000069
0.000158
0.000185
0.000135
0.000092
0.000151
0.000312
0.000486
0.000552
0.000466
0.000309
0.000196
0.000163
0.000181
0.000208
0.000221
0.000229
0.000261
0.000342
0.000455
0.000527
0.000492
0.000360
0.000221
0.000186
0.000282
0.000397
0.000425
0.000392
0.000390
0.000450
0.000514
0.000485
0.000339
0.000178
0.000109
0.000122
0.000133
0.000090
0.000005
-0.000059
-0.000067
-0.000052
-0.000055
-0.000056
-0.000018
0.000052
0.000114
0.000129
0.000111
0.000124
0.000204
0.000306
0.000372
0.000409
0.000457
0.000529
0.000580
0.000540
0.000398
0.000247
0.000194
0.000244
0.000331
0.000385
0.000380
0.000334
0.000271
0.000182
0.000059
-0.000070
-0.000180
-0.000276
-0.000360
-0.000393
-0.000334
-0.000183
0.000004
0.000143
0.000186
0.000164
0.000132
0.000109
0.000091
0.000087
0.000112
0.000174
0.000251
0.000297
0.000292
0.000275
0.000293
0.000344
0.000389
0.000393
0.000344
0.000267
0.000191
0.000142
0.000148
0.000238
0.000384
0.000485
0.000452
0.000311
0.000167
0.000118
0.000168
0.000208
0.000136
-0.000035
-0.000218
-0.000344
-0.000378
-0.000322
-0.000225
-0.000176
-0.000237
-0.000374
-0.000482
-0.000446
-0.000242
0.000033
0.000269
0.000450
0.000586
0.000636
0.000558
0.000393
0.000243
0.000189
0.000217
0.000202
0.000062
-0.000118
-0.000203
-0.000155
-0.000030
0.000087
0.000137
0.000112
0.000015
-0.000149
-0.000343
-0.000472
-0.000475
-0.000386
-0.000276
-0.000158
-0.000002
0.000206
0.000425
0.000558
0.000536
0.000387
0.000192
0.000015
-0.000102
-0.000133
-0.000069
0.000063
0.000202
0.000281
0.000251
0.000105
-0.000138
-0.000433
-0.000687
-0.000766
-0.000615
-0.000341
-0.000117
-0.000030
-0.000037
-0.000015
0.000083
0.000148
0.000087
-0.000020
-0.000031
0.000082
0.000214
0.000212
0.000035
-0.000172
-0.000252
-0.000205
-0.000125
-0.000085
-0.000096
-0.000131
-0.000169
-0.000220
-0.000284
-0.000322
-0.000293
-0.000190
-0.000042
0.000113
0.000243
0.000321
0.000306
0.000155
-0.000124
-0.000418
-0.000584
-0.000547
-0.000339
-0.000090
0.000086
0.000167
0.000169
0.000074
-0.000124
-0.000366
-0.000544
-0.000570
-0.000444
-0.000271
-0.000168
-0.000166
-0.000225
-0.000290
-0.000315
-0.000276
-0.000162
0.000016
0.000206
0.000314
0.000263
0.000066
-0.000188
-0.000386
-0.000481
-0.000522
-0.000547
-0.000499
-0.000335
-0.000136
-0.000046
-0.000144
-0.000356
-0.000490
-0.000426
-0.000252
-0.000107
0.000001
0.000132
0.000283
0.000339
0.000112
-0.000553
-0.001715
-0.003465
-0.006113
-0.010295
-0.016995
-0.027348
-0.042269
-0.061861
-0.084949
-0.109235
-0.131760
-0.149636
-0.160779
-0.164588
-0.162664
-0.159373
-0.161588
-0.176329
-0.208165
-0.258122
-0.323546
-0.399095
-0.478267
-0.555539
-0.628344
-0.697047
-0.762329
-0.819143
-0.854103
-0.854605
-0.818757
-0.754482
-0.672334
-0.575632
-0.456874
-0.310361
-0.144316
0.024198
0.179790
0.314961
0.432540
0.544424
0.669357
0.828289
1.035370
1.281607
1.523559
1.695946
1.736050
1.614046
1.355311
1.031031
0.726775
0.489376
0.292889
0.075803
-0.201527
-0.524029
-0.823278
-1.029758
-1.111450
-1.043525
-0.784652
-0.335122
0.201638
0.653510
0.872873
0.852099
0.758901
0.762967
0.861029
0.912562
0.769261
0.403687
-0.046261
-0.414568
-0.647963
-0.783010
-0.857828
-0.848756
-0.679963
-0.356272
-0.060625
-0.036594
-0.401703
-1.036157
-1.604683
-1.808675
-1.603771
-1.117885
-0.486079
0.209712
0.909985
1.482131
1.701519
1.448020
0.876322
0.294244
-0.052269
-0.107673
-0.016687
0.043097
0.009123
-0.108804
-0.303853
-0.542763
-0.715942
-0.675554
-0.325471
0.286588
0.962221
1.532995
2.002294
2.420862
2.730561
2.803425
2.548837
1.960711
1.095399
-0.015255
-1.387658
-2.926945
-4.308110
-5.141620
-5.188348
-4.412813
-2.978837
-1.250824
0.263143
1.152581
1.344824
1.108398
0.885806
0.967284
1.289458
1.661355
2.021717
2.372771
2.636914
2.679413
2.404110
1.818185
1.043376
0.245845
-0.441162
-0.954559
-1.335457
-1.755043
-2.443230
-3.409901
-4.262533
-4.485903
-3.818964
-2.382161
-0.608373
1.036398
2.296177
3.115469
3.553272
3.731078
3.779138
3.733980
3.489406
2.940772
2.138378
1.252892
0.444956
-0.276801
-1.085595
-2.109345
-3.222606
-4.144897
-4.648889
-4.703660
-4.488635
-4.189005
-3.812776
-3.257792
-2.449997
-1.399350
-0.187588
1.097560
2.399658
3.638465
4.669206
5.361284
5.680888
5.658787
5.330877
4.733277
3.919868
2.960328
1.910592
0.760610
-0.570979
-2.112588
-3.726363
-5.159825
-6.159024
-6.564103
-6.359624
-5.639414
-4.547021
-3.226849
-1.797224
-0.362672
0.967510
2.083527
2.901895
3.414976
3.715275
3.928737
4.121786
4.243514
4.123454
3.579422
2.547832
1.150807
-0.320647
-1.569944
-2.453565
-2.981961
-3.239014
-3.268398
-3.019678
-2.453218
-1.654047
-0.804064
-0.079806
0.468560
0.965376
1.568431
2.303345
3.027460
3.478303
3.404357
2.694303
1.429090
-0.129640
-1.654430
-2.893031
-3.762742
-4.352756
-4.759663
-4.963448
-4.943297
-4.808579
-4.708565
-4.652869
-4.399008
-3.509258
-1.720608
0.747716
3.352120
5.523273
6.852799
7.175883
6.542598
5.165411
3.361090
1.474650
-0.222206
-1.572058
-2.415232
-2.518848
-1.763996
-0.348771
1.266897
2.556776
3.183994
3.153739
2.673428
1.961886
1.197258
0.524745
0.056643
-0.137678
-0.034520
0.340684
0.902573
1.509314
2.014215
2.325283
2.428557
2.376730
2.226621
1.978478
1.563031
0.844548
-0.354344
-2.168250
-4.498813
-6.908247
-8.841914
-9.915276
-10.012462
-9.234630
-7.706810
-5.471604
-2.679858
0.235775
2.731713
4.416284
5.165983
5.122593
4.560341
3.747270
2.884799
2.083709
1.365603
0.686833
0.004777
-0.673161
-1.312698
-1.862396
-2.189263
-2.072624
-1.408949
-0.391301
0.611933
1.287998
1.551998
1.585781
1.639569
1.851188
2.291855
3.016073
3.923180
4.663125
4.872067
4.459592
3.637181
2.754964
1.981288
1.135406
0.004988
-1.318515
-2.539496
-3.404969
-3.841504
-3.966223
-3.944357
-3.856526
-3.702971
-3.438323
-2.967522
-2.171279
-1.040592
0.237106
1.423876
2.395979
3.116405
3.537005
3.555863
3.066567
2.127063
1.045127
0.156645
-0.414134
-0.728314
-0.907917
-1.050163
-1.195916
-1.354459
-1.517711
-1.631504
-1.605940
-1.445419
-1.329270
-1.443437
-1.775773
-2.103948
-2.122696
-1.688278
-0.967679
-0.248650
0.322393
0.824130
1.481658
2.399071
3.360321
3.976867
3.947298
3.228985
2.057735
0.715924
-0.671118
-2.050978
-3.294914
-4.190509
-4.521796
-4.191005
-3.297962
-2.088195
-0.863902
0.097131
0.637181
0.830929
0.993378
1.405273
2.046640
2.654420
2.930028
2.764749
2.334578
1.891205
1.536174
1.240841
0.966107
0.758847
0.772321
1.145466
1.864699
2.730717
3.423995
3.700422
3.546477
3.111974
2.577162
2.082792
1.732304
1.668398
2.095124
3.115045
4.569831
6.093839
7.265144
7.779339
7.570836
6.786492
5.693016
4.543594
3.466531
2.450875
1.393856
0.210825
-1.085537
-2.432994
-3.791796
-5.145052
-6.448667
-7.560531
-8.237860
-8.311857
-7.859785
-7.157098
-6.480464
-5.817705
-4.763219
-2.944974
-0.484270
2.018698
3.750745
4.072446
2.781024
0.014560
-3.893166
-8.412984
-12.885310
-16.851267
-20.222594
-22.803724
-23.849358
-22.436638
-18.163575
-11.659647
-4.529387
1.795653
7.037206
11.590278
15.644399
18.842386
20.402130
19.715702
16.876042
12.625557
8.046352
4.134553
1.421168
-0.173526
-1.239489
-2.365595
-3.688301
-4.986216
-5.968039
-6.495470
-6.678454
-6.756862
-6.921561
-7.175611
-7.293157
-6.985731
-6.105447
-4.723069
-3.074192
-1.328121
0.576081
2.764681
5.190942
7.563173
9.411192
10.323544
10.193784
9.306254
8.252605
7.572003
7.405641
7.477728
7.273589
6.380996
4.747043
2.592438
0.227793
-2.060767
-4.073819
-5.721401
-7.013424
-7.979714
-8.587252
-8.734108
-8.306900
-7.305936
-5.920212
-4.410382
-2.946570
-1.537660
-0.053055
1.627755
3.477028
5.328578
6.957518
8.187074
8.962003
9.330131
9.406843
9.363541
9.397719
9.627892
9.999741
10.318605
10.349280
9.944428
9.110155
7.903650
6.323777
4.347104
2.017993
-0.497716
-2.928348
-5.033743
-6.740033
-8.137817
-9.392689
-10.580947
-11.573443
-12.117516
-11.997811
-11.192627
-9.948821
-8.651971
-7.631215
-7.000323
-6.589518
-6.084482
-5.239056
-4.056169
-2.834442
-1.913506
-1.394859
-1.102656
-0.686163
0.172597
1.592600
3.504856
5.720832
7.990970
10.057480
11.722058
12.901743
13.623067
13.986881
14.100322
13.981940
13.453630
12.118097
9.573279
5.648652
0.469592
-5.547584
-11.729636
-17.242835
-21.365519
-23.782446
-24.667908
-24.496858
-23.475955
-21.240408
-17.530085
-12.904751
-8.498456
-5.316088
-3.515287
-2.178313
-0.212440
2.699824
6.113249
9.244973
11.436126
12.458048
12.487459
11.931317
11.148945
10.246718
9.149235
7.780288
6.225476
4.750041
3.530676
2.453989
1.343067
0.251874
-0.536475
-0.684861
-0.055526
1.158171
2.636692
4.170689
5.651299
6.955983
7.869954
8.124256
7.632776
6.667357
5.680438
5.033753
4.861880
5.066871
5.465271
5.895705
6.141610
5.884986
4.914300
3.343195
1.554198
-0.000222
-1.048735
-1.650667
-2.063688
-2.556169
-3.326933
-4.462483
-5.880201
-7.313820
-8.453889
-9.116760
-9.311717
-9.215519
-9.017982
-8.770168
-8.357183
-7.538205
-6.055290
-3.775274
-0.841719
2.259711
4.886963
6.488187
6.756318
5.693243
3.541942
0.691466
-2.410049
-5.369897
-8.015748
-10.464925
-12.879262
-15.167135
-16.912052
-17.513839
-16.599383
-14.338030
-11.263753
-7.948501
-4.800964
-2.018071
0.268121
1.881493
2.728487
2.941560
2.811377
2.635548
2.605019
2.779539
3.207996
4.012716
5.257240
6.778281
8.182814
8.979001
8.853385
7.888577
6.480016
5.124593
4.179179
3.695548
3.472160
3.200051
2.653421
1.833099
0.941850
0.268015
-0.000395
0.095774
0.367601
0.623859
0.773764
0.860164
0.976002
1.170110
1.426640
1.680318
1.852350
1.896200
1.844734
1.812339
1.881641
1.991435
1.963903
1.623607
0.972826
0.259775
-0.260794
-0.587059
-0.953263
-1.656572
-2.806588
-4.188582
-5.456417
-6.373015
-6.851596
-6.894096
-6.499583
-5.620977
-4.239052
-2.448170
-0.454533
1.476461
3.113075
4.346472
5.221306
5.895357
6.480726
6.912038
7.010410
6.631841
5.811872
4.813114
3.947880
3.379606
3.092735
2.958887
2.863128
2.793267
2.791478
2.855242
2.862384
2.579093
1.840886
0.734145
-0.416761
-1.197258
-1.374140
-1.081416
-0.672510
-0.475203
-0.632612
-1.051053
-1.512770
-1.814822
-1.840356
-1.586647
-1.146734
-0.665241
-0.261728
0.026897
0.220152
0.339585
0.371551
0.266598
0.001973
-0.364806
-0.728691
-1.005590
-1.189455
-1.356328
-1.558913
-1.728868
-1.716716
-1.402292
-0.820535
-0.204170
0.187485
0.262616
0.127155
0.008252
0.086440
0.365746
0.713392
0.956573
0.964502
0.701685
0.230490
-0.319573
-0.829890
-1.264938
-1.677092
-2.167791
-2.806006
-3.564439
-4.337276
-4.983687
-5.362411
-5.359225
-4.917760
-4.074561
-2.983674
-1.906926
-1.114419
-0.759121
-0.789287
-0.932531
-0.835069
-0.235258
0.928047
2.480180
4.103556
5.465816
6.328588
6.618806
6.416784
5.900773
5.251416
4.574725
3.908289
3.257867
2.630416
2.047260
1.525912
1.071323
0.707713
0.494949
0.464855
0.551113
0.603382
0.464446
0.098909
-0.341177
-0.655410
-0.766704
-0.762571
-0.846848
-1.206247
-1.891825
-2.810235
-3.771086
-4.579083
-5.125675
-5.431930
-5.629328
-5.832180
-6.026180
-6.104871
-5.961340
-5.563509
-4.980686
-4.319727
-3.655423
-3.023902
-2.437230
-1.886898
-1.343714
-0.770601
-0.139677
0.556954
1.303402
2.067212
2.808264
3.482085
4.038337
4.415876
4.544421
4.369811
3.890029
3.184272
2.408594
1.714139
1.163476
0.724875
0.312460
-0.142204
-0.643535
-1.165425
-1.691317
-2.198831
-2.635679
-2.938853
-3.071583
-3.048618
-2.935415
-2.798338
-2.655782
-2.477169
-2.199987
-1.750377
-1.071339
-0.168769
0.857666
1.850576
2.658942
3.202048
3.501680
3.633724
3.658666
3.582014
3.357972
2.963536
2.462261
1.972506
1.597351
1.364687
1.213696
1.073608
0.935513
0.823469
0.741772
0.669242
0.581582
0.484812
0.436277
0.524914
0.830565
1.367565
2.038284
2.642106
2.935838
2.765915
2.171260
1.338616
0.510507
-0.089894
-0.317013
-0.146101
0.302187
0.799012
1.089837
1.021303
0.618997
0.003741
-0.708844
-1.401235
-1.919904
-2.104119
-1.858465
-1.236480
-0.457650
0.241279
0.750050
1.056772
1.168663
1.083955
0.801318
0.346062
-0.222965
-0.850509
-1.505978
-2.133620
-2.618723
-2.862042
-2.858985
-2.671966
-2.361465
-1.940591
-1.383204
-0.719060
-0.100294
0.287886
0.354280
0.153812
-0.131963
-0.309634
-0.283752
-0.069046
0.244499
0.549857
0.767888
0.850644
0.775373
0.550099
0.220147
-0.142162
-0.455929
-0.653795
-0.702902
-0.616379
-0.450511
-0.270837
-0.113353
0.029468
0.192963
0.381156
0.525566
0.530793
0.340604
-0.034157
-0.518207
-1.007927
-1.407433
-1.642089
-1.666252
-1.474333
-1.102774
-0.603553
-0.020817
0.598188
1.188568
1.681856
2.031999
2.237006
2.348073
2.450792
2.636444
2.968799
3.449432
3.994088
4.442631
4.642928
4.527784
4.100800
3.391358
2.431677
1.269065
0.020406
-1.107362
-1.918062
-2.337933
-2.425882
-2.330070
-2.214110
-2.195129
-2.327645
-2.605176
-2.971568
-3.340122
-3.627751
-3.780698
-3.766507
-3.566222
-3.196451
-2.729764
-2.275576
-1.948998
-1.846219
-2.018789
-2.438646
-2.975389
-3.431504
-3.615506
-3.442046
-2.985224
-2.389657
-1.762460
-1.154419
-0.582076
-0.051037
0.441512
0.933722
1.506521
2.218246
3.036870
3.846293
4.489402
4.828920
4.798677
4.416860
3.773913
2.987853
2.160912
1.368456
0.664669
0.096000
-0.296261
-0.498894
-0.541434
-0.469717
-0.322166
-0.151735
-0.049949
-0.118878
-0.413499
-0.880441
-1.345703
-1.623833
-1.630698
-1.384659
-0.959539
-0.436200
0.117153
0.615836
0.945753
1.028135
0.881494
0.591068
0.245150
-0.108191
-0.466892
-0.820180
-1.101859
-1.220354
-1.115299
-0.798261
-0.364717
0.050279
0.334393
0.449193
0.447480
0.415976
0.408376
0.428649
0.450658
0.471077
0.544021
0.741477
1.094187
1.562541
2.042504
2.426336
2.665215
2.780723
2.838118
2.879216
2.874634
2.759777
2.491465
2.071740
1.544161
0.961687
0.359827
-0.237124
-0.803119
-1.310760
-1.732436
-2.032587
-2.172345
-2.151722
