EVENT_NAME: None
EVENT_ID: INT-37989201
EVENT_DATE_YYYYMMDD: 20240327
EVENT_TIME_HHMMSS: 211936
EVENT_LATITUDE_DEGREE: 46.3583
EVENT_LONGITUDE_DEGREE: 12.8308
EVENT_DEPTH_KM: 7.0
HYPOCENTER_REFERENCE: INGV-BULLETIN
MAGNITUDE_W: 4.1
MAGNITUDE_W_REFERENCE: INGV-TERREMOTI
MAGNITUDE_L: 
MAGNITUDE_L_REFERENCE: 
FOCAL_MECHANISM: Thrust faulting
NETWORK: IV
STATION_CODE: STAL
STATION_NAME: Staligial
STATION_LATITUDE_DEGREE: 46.260100
STATION_LONGITUDE_DEGREE: 12.710400
STATION_ELEVATION_M: 625
LOCATION: 
SENSOR_DEPTH_M: 0.0
VS30_M/S: 
SITE_CLASSIFICATION_EC8: B (inferred from geology)
MORPHOLOGIC_CLASSIFICATION: 
EPICENTRAL_DISTANCE_KM: 14.3
EARTHQUAKE_BACKAZIMUTH_DEGREE: 220.4
DATE_TIME_FIRST_SAMPLE_YYYYMMDD_HHMMSS: 20240327_211919.770
DATE_TIME_FIRST_SAMPLE_PRECISION: milliseconds
SAMPLING_INTERVAL_S: 0.005000
NDATA: 20670
DURATION_S: 103.350
STREAM: HNZ
UNITS: cm/s^2
INSTRUMENT: HN
INSTRUMENT_ANALOG/DIGITAL: D
INSTRUMENTAL_FREQUENCY_HZ: 
INSTRUMENTAL_DAMPING: 
FULL_SCALE_G: 
N_BIT_DIGITAL_CONVERTER: 
PGA_CM/S^2: -16.236350
TIME_PGA_S: 22.595000
BASELINE_CORRECTION: BASELINE REMOVED
FILTER_TYPE: BUTTERWORTH
FILTER_ORDER: 2
LOW_CUT_FREQUENCY_HZ: 0.100
HIGH_CUT_FREQUENCY_HZ: 40.000
LATE/NORMAL_TRIGGERED: NT
DATABASE_VERSION: 0.5
HEADER_FORMAT: DYNA 1.2
DATA_TYPE: ACCELERATION
PROCESSING: manual (Paolucci et al., 2011)
DATA_TIMESTAMP_YYYYMMDD_HHMMSS: 20240521_175643.048
DATA_LICENSE: D (network default license)
DATA_CITATION: Luzi L., Lanzano G., Felicetta C., D Amico M. C., Russo E., Sgobba S., Pacor, F., & ORFEUS Working Group 5 (2020). Engineering Strong Motion Database (ESM) (Version 2.0). Istituto Nazionale di Geofisica e Vulcanologia (INGV). https://doi.org/10.13127/ESM.2
DATA_CREATOR: ESM working group
ORIGINAL_DATA_MEDIATOR_CITATION: webservices.ingv.it
ORIGINAL_DATA_MEDIATOR: webservices.ingv.it
ORIGINAL_DATA_CREATOR_CITATION: INGV Seismological Data Centre. (1997). Rete Sismica Nazionale (RSN). Istituto Nazionale di Geofisica e Vulcanologia (INGV), Italy. https://doi.org/10.13127/SD/X0FXnH7QfY http://www.fdsn.org/networks/detail/IV/
ORIGINAL_DATA_CREATOR: network: IV (Italian National Seismic Network (INSN)); owner: Istituto Nazionale di Geofisica e Vulcanologia (INGV)
USER1: 
USER2: 
USER3: 
USER4: 
USER5: 
[...]
-0.000749
0.000115
0.000163
-0.000237
-0.000138
0.000309
0.000381
0.000110
-0.000156
-0.000364
-0.000339
-0.000040
0.000211
0.000333
0.000367
0.000387
0.000588
0.000808
0.000993
0.001405
0.001591
0.001094
0.000615
0.000693
0.000871
0.000628
-0.000131
-0.000881
-0.000918
-0.000287
0.000426
0.000481
-0.000511
-0.001694
-0.001931
-0.001461
-0.001275
-0.001466
-0.001443
-0.001173
-0.000713
0.000164
0.000998
0.001172
0.000725
-0.000046
-0.000769
-0.001408
-0.001978
-0.001735
-0.000378
0.000783
0.000727
0.000459
0.000914
0.001181
0.000399
-0.000928
-0.001662
-0.001204
-0.000217
0.000489
0.000850
0.000905
0.000693
0.000393
0.000076
-0.000330
-0.000757
-0.000798
-0.000147
0.000804
0.001286
0.000961
0.000259
-0.000191
-0.000386
-0.000680
-0.000965
-0.000788
-0.000097
0.000598
0.000872
0.000816
0.000670
0.000462
0.000327
0.000386
0.000123
-0.000581
-0.000738
-0.000102
0.000209
-0.000321
-0.000907
-0.000887
-0.000327
0.000357
0.000599
0.000396
0.000280
0.000424
0.000801
0.001077
0.000487
-0.000637
-0.000824
0.000157
0.000868
0.000680
0.000563
0.000903
0.000966
0.000614
0.000257
-0.000123
-0.000583
-0.001025
-0.001456
-0.001598
-0.001094
-0.000382
-0.000055
-0.000004
-0.000131
-0.000428
-0.000484
-0.000324
-0.000371
-0.000324
0.000143
0.000718
0.001331
0.001905
0.002056
0.001795
0.001053
-0.000237
-0.001218
-0.001044
0.000004
0.000876
0.000854
0.000212
-0.000389
-0.000516
-0.000323
-0.000253
-0.000124
0.000174
0.000179
-0.000027
0.000024
0.000276
0.000401
0.000245
0.000061
0.000206
0.000481
0.000583
0.000550
0.000483
0.000280
-0.000431
-0.001276
-0.001221
-0.000545
-0.000209
-0.000102
-0.000053
-0.000300
-0.000508
-0.000303
0.000120
0.000368
0.000149
-0.000205
-0.000097
0.000305
0.000459
0.000147
-0.000413
-0.000608
-0.000245
0.000109
0.000074
-0.000100
0.000091
0.000582
0.000533
-0.000228
-0.000867
-0.001061
-0.001104
-0.001063
-0.000719
-0.000017
0.000516
0.000556
0.000517
0.000492
0.000226
-0.000088
-0.000236
-0.000350
-0.000637
-0.001030
-0.001054
-0.000443
0.000279
0.000418
0.000104
-0.000073
0.000048
0.000396
0.000841
0.000824
-0.000133
-0.001333
-0.001506
-0.000444
0.000901
0.001567
0.001577
0.001484
0.001172
0.000509
0.000120
0.000228
0.000329
0.000240
0.000127
0.000125
0.000420
0.000665
0.000036
-0.001108
-0.001424
-0.000879
-0.000724
-0.001184
-0.001133
-0.000213
0.000635
0.000926
0.001034
0.001011
0.000524
-0.000355
-0.001139
-0.001429
-0.001125
-0.000407
0.000269
0.000366
-0.000251
-0.001078
-0.001404
-0.000982
-0.000204
0.000397
0.000674
0.000664
0.000436
0.000476
0.001160
0.001958
0.002012
0.001161
0.000167
-0.000095
0.000445
0.001025
0.000992
0.000550
-0.000087
-0.000956
-0.001294
-0.000357
0.001178
0.001909
0.001291
0.000274
0.000038
0.000487
0.000760
0.000523
0.000346
0.000655
0.000794
0.000307
-0.000145
-0.000201
-0.000284
-0.000468
-0.000406
0.000102
0.000877
0.001127
0.000308
-0.000928
-0.001522
-0.000954
0.000293
0.001153
0.001228
0.000660
-0.000104
-0.000279
0.000116
0.000213
-0.000209
-0.000611
-0.000720
-0.000629
-0.000530
-0.000762
-0.001161
-0.000879
0.000103
0.000573
0.000102
-0.000288
-0.000090
0.000068
-0.000087
-0.000212
-0.000150
0.000025
0.000192
0.000121
-0.000162
-0.000110
0.000360
0.000471
-0.000065
-0.000666
-0.000723
-0.000198
0.000363
0.000656
0.000684
0.000281
-0.000298
-0.000434
-0.000042
0.000343
0.000156
-0.000269
-0.000176
0.000219
0.000388
0.000521
0.000946
0.001373
0.001134
0.000219
-0.000354
0.000226
0.001241
0.001579
0.001251
0.000479
-0.000772
-0.001885
-0.001980
-0.001102
-0.000222
0.000113
0.000381
0.000769
0.000661
0.000053
-0.000274
-0.000030
0.000397
0.000447
-0.000102
-0.000521
0.000016
0.000891
0.000950
0.000306
-0.000190
-0.000366
-0.000523
-0.000508
-0.000048
0.000455
0.000515
0.000281
0.000073
-0.000040
-0.000119
-0.000259
-0.000493
-0.000722
-0.000817
-0.000597
0.000117
0.001036
0.001393
0.001056
0.000876
0.001154
0.001134
0.000228
-0.001091
-0.001675
-0.001121
-0.000064
0.000757
0.000828
0.000070
-0.000733
-0.000767
-0.000523
-0.000760
-0.001021
-0.000686
-0.000227
-0.000401
-0.000907
-0.001045
-0.000875
-0.000634
-0.000308
-0.000087
-0.000352
-0.000836
-0.000646
0.000305
0.001161
0.001290
0.000713
-0.000110
-0.000636
-0.000629
-0.000442
-0.000491
-0.000510
-0.000245
-0.000239
-0.000793
-0.001194
-0.000799
0.000093
0.000602
0.000275
-0.000204
-0.000150
-0.000100
-0.000595
-0.001079
-0.000970
-0.000622
-0.000477
-0.000427
-0.000434
-0.000500
-0.000374
-0.000033
0.000182
-0.000081
-0.000842
-0.001591
-0.001567
-0.000648
0.000348
0.000541
-0.000031
-0.000200
0.000654
0.001372
0.001171
0.000682
-0.000003
-0.001084
-0.001753
-0.001432
-0.000764
-0.000452
-0.000265
0.000224
0.000856
0.001417
0.001718
0.001326
0.000422
-0.000240
-0.000616
-0.001051
-0.001389
-0.001359
-0.000891
-0.000210
0.000423
0.000825
0.000574
-0.000101
-0.000258
0.000096
0.000155
-0.000097
-0.000129
-0.000063
-0.000150
-0.000162
0.000045
0.000382
0.000645
0.000505
-0.000083
-0.000658
-0.000844
-0.000703
-0.000386
-0.000227
-0.000583
-0.001024
-0.000799
-0.000028
0.000664
0.000997
0.000950
0.000649
0.000181
-0.000467
-0.000980
-0.000979
-0.000459
0.000269
0.000598
0.000250
-0.000296
-0.000723
-0.001151
-0.001404
-0.001047
-0.000079
0.000774
0.000805
0.000364
0.000280
0.000387
0.000040
-0.000332
-0.000052
0.000430
0.000633
0.000757
0.000705
0.000158
-0.000557
-0.000968
-0.001099
-0.000950
-0.000587
-0.000343
-0.000142
0.000126
0.000124
-0.000330
-0.001077
-0.001738
-0.001886
-0.001387
-0.000532
0.000093
0.000159
-0.000106
-0.000210
0.000194
0.000790
0.001100
0.001137
0.000787
-0.000062
-0.000651
-0.000164
0.000732
0.000844
0.000462
0.000261
-0.000100
-0.000694
-0.000830
-0.000493
-0.000507
-0.000987
-0.001296
-0.001180
-0.000611
0.000364
0.001217
0.001390
0.000800
-0.000206
-0.000969
-0.001221
-0.001270
-0.001138
-0.000687
-0.000120
0.000166
-0.000012
-0.000145
0.000286
0.000830
0.000571
-0.000477
-0.001241
-0.001203
-0.001019
-0.001239
-0.001252
-0.000327
0.000621
0.000384
-0.000345
-0.000305
0.000234
0.000070
-0.000818
-0.001274
-0.001005
-0.000734
-0.000857
-0.001158
-0.001367
-0.001396
-0.001114
-0.000672
-0.000480
-0.000537
-0.000698
-0.000796
-0.000645
-0.000502
-0.000534
-0.000551
-0.000501
-0.000363
-0.000095
0.000425
0.001064
0.001146
0.000510
-0.000297
-0.000791
-0.000698
-0.000206
0.000173
0.000211
0.000055
-0.000026
-0.000041
-0.000389
-0.001112
-0.001433
-0.000694
0.000793
0.002028
0.002232
0.001499
0.000401
-0.000361
-0.000284
0.000207
0.000293
0.000106
0.000267
0.000374
-0.000047
-0.000149
0.000602
0.001447
0.001342
-0.000190
-0.001935
-0.001988
-0.000553
0.000586
0.000524
-0.000169
-0.000495
-0.000252
0.000192
0.000513
0.000400
0.000129
0.000606
0.001784
0.002238
0.001344
0.000141
-0.000418
-0.000338
-0.000055
0.000112
0.000008
-0.000468
-0.001026
-0.001197
-0.000904
-0.000547
-0.000576
-0.000803
-0.000765
-0.000551
-0.000447
-0.000300
-0.000082
-0.000377
-0.001179
-0.001758
-0.001856
-0.001348
-0.000394
0.000161
0.000123
0.000185
0.000654
0.001232
0.001536
0.001375
0.000842
0.000100
-0.000406
-0.000249
-0.000036
-0.000426
-0.000845
-0.000685
-0.000466
-0.000877
-0.001466
-0.001214
-0.000229
0.000447
0.000406
-0.000068
-0.000486
-0.000315
0.000127
-0.000100
-0.000836
-0.001057
-0.000671
-0.000254
-0.000039
-0.000275
-0.000936
-0.001218
-0.000745
-0.000326
-0.000500
-0.000570
-0.000019
0.000425
0.000101
-0.000351
-0.000199
0.000185
0.000256
0.000126
0.000055
-0.000092
-0.000434
-0.000762
-0.000804
-0.000235
0.000761
0.001331
0.001086
0.000495
0.000103
-0.000058
-0.000182
-0.000400
-0.000736
-0.000848
-0.000611
-0.000419
-0.000443
-0.000462
-0.000229
0.000089
0.000008
-0.000591
-0.001179
-0.001045
-0.000188
0.000620
0.000776
0.000188
-0.000836
-0.001307
-0.000499
0.000531
0.000409
-0.000358
-0.000516
-0.000021
0.000361
0.000426
0.000373
0.000164
0.000040
0.000153
-0.000149
-0.001108
-0.002103
-0.002649
-0.002430
-0.001377
-0.000213
0.000268
0.000126
-0.000216
-0.000551
-0.000609
-0.000113
0.000535
0.000522
-0.000391
-0.001737
-0.002569
-0.002158
-0.001081
-0.000429
-0.000262
-0.000142
-0.000138
-0.000381
-0.000717
-0.000875
-0.000589
0.000079
0.000600
0.000406
-0.000173
-0.000419
-0.000697
-0.001309
-0.001413
-0.000798
-0.000298
0.000292
0.003563
0.014336
0.037934
0.077785
0.133754
0.199658
0.262958
0.310266
0.330408
0.311468
0.242837
0.124400
-0.025238
-0.167045
-0.253926
-0.252462
-0.155055
0.026273
0.280165
0.606232
0.990051
1.371080
1.656384
1.776404
1.720225
1.506897
1.137322
0.608073
-0.024060
-0.630439
-1.090551
-1.368468
-1.509522
-1.599569
-1.701049
-1.750442
-1.583022
-1.205440
-0.965818
-1.222128
-1.858237
-2.368348
-2.443917
-2.267217
-2.187271
-2.220109
-1.861133
-0.483749
1.813188
3.922647
4.786537
4.603755
4.463736
4.919952
5.347239
4.601896
2.235382
-0.762513
-2.701304
-3.019282
-2.996968
-4.172981
-6.285222
-7.355812
-5.996926
-3.226618
-1.487084
-1.893604
-2.998245
-2.591991
-0.269717
2.424032
4.076169
4.832095
5.741729
7.156750
8.113428
7.488916
5.383084
2.851502
0.720047
-0.772501
-1.649382
-2.090248
-2.348877
-2.466572
-2.359260
-2.224865
-2.427098
-3.024472
-3.725626
-4.158598
-4.116628
-3.722532
-3.273543
-2.776646
-1.767811
0.097032
2.288563
3.816264
4.534924
5.251314
6.206885
6.335956
4.734323
2.181235
0.207877
-0.793610
-1.445571
-2.047263
-2.476172
-2.803726
-3.182094
-3.624936
-4.180877
-4.671838
-4.355116
-2.642321
0.010356
2.464016
3.899990
4.263488
4.049641
3.767584
3.394972
2.433220
0.736779
-1.073187
-2.447177
-3.557881
-4.521932
-4.765043
-3.910254
-2.470000
-0.877150
1.282941
4.248688
7.064862
8.267943
7.122290
4.005847
0.108125
-3.139399
-4.816292
-5.022255
-4.621859
-4.418533
-4.502168
-4.317620
-3.274376
-1.291838
1.035037
2.835597
3.792224
4.380647
5.064731
5.638584
5.560719
4.527166
2.692299
0.700600
-0.750836
-1.745741
-3.104580
-5.115319
-6.815691
-7.010462
-5.543945
-3.187093
-0.765010
1.290339
2.861817
3.893149
4.295705
4.067202
3.347184
2.326598
1.096045
-0.398801
-2.147998
-3.895856
-5.244338
-5.848170
-5.524996
-4.304183
-2.472876
-0.536732
1.038228
2.059748
2.626976
3.179517
4.342637
6.210910
8.004656
8.883124
8.759227
8.007890
6.785009
4.859781
1.875831
-2.124243
-6.182636
-8.837045
-9.461680
-8.772376
-7.781813
-6.945267
-6.378686
-5.895691
-4.769824
-2.457149
0.477387
2.910590
4.412829
5.385351
6.232275
6.819905
6.598986
5.074804
2.322284
-0.806682
-3.090565
-3.733080
-2.807346
-1.001952
0.852381
2.109104
2.627979
2.793144
2.792107
2.031954
-0.186102
-3.608001
-7.101582
-9.466599
-9.904217
-8.248688
-5.067530
-1.268210
2.405424
5.464242
7.586497
8.568500
8.305822
6.930806
4.999053
3.317867
2.376765
1.961628
1.430833
0.334991
-1.307553
-3.201672
-4.984984
-6.319799
-7.094201
-7.490955
-7.595868
-7.084763
-5.578235
-3.172354
-0.427239
1.961044
3.352602
3.428303
2.510378
1.387088
0.761761
0.935259
1.781189
2.897496
3.964433
4.929882
5.623113
5.410752
3.778201
1.255370
-0.704209
-0.865851
0.829108
3.116011
4.249431
3.572217
2.042026
0.622687
-1.126418
-3.930886
-7.054852
-8.822999
-8.467832
-6.596763
-4.203223
-1.955464
-0.152650
1.231129
2.315022
2.973437
3.045571
2.751126
2.391994
1.806108
0.646858
-0.913622
-2.186120
-2.572341
-1.934236
-0.559586
1.026711
2.315187
2.997253
3.018386
2.544450
1.764412
0.713123
-0.479062
-1.297689
-1.345631
-1.114664
-1.613377
-3.101684
-4.674467
-5.162706
-4.204290
-2.463649
-0.808206
0.587914
1.928712
2.938269
3.107471
2.574331
2.029458
1.845359
1.752106
1.237942
0.050176
-1.444860
-2.369712
-2.140504
-1.006417
0.429674
1.750817
2.643185
2.895005
2.614352
2.022740
1.142951
0.041280
-0.963447
-1.680328
-2.237542
-2.701699
-2.941588
-2.956436
-2.936868
-2.898362
-2.518716
-1.500442
-0.042251
1.197001
1.704154
1.671064
1.904017
3.018194
4.593690
5.425047
4.834444
3.347574
1.926192
1.027161
0.452056
-0.334295
-1.671870
-3.263170
-4.455870
-4.954212
-4.935221
-4.532406
-3.606219
-2.140264
-0.584153
0.456395
0.849763
1.037545
1.394846
1.776428
1.940893
2.097372
2.672212
3.665903
4.472688
4.372867
3.145936
1.226901
-0.557249
-1.433108
-1.208210
-0.437338
0.136613
0.211870
-0.120931
-0.687187
-1.247937
-1.524457
-1.410676
-1.090508
-0.957625
-1.285608
-1.725842
-1.411341
-0.001718
1.721400
2.736914
2.764508
2.032305
0.806647
-0.448625
-1.130860
-1.071013
-0.558673
0.295178
1.672079
3.439378
4.903114
5.318950
4.419165
2.421101
-0.171124
-2.661193
-4.466210
-5.652436
-6.809921
-7.970129
-7.925575
-5.211099
0.058529
5.674752
9.114209
9.803532
9.285623
9.248577
9.749322
9.478509
7.590504
4.798657
2.467400
1.108560
0.012021
-1.968698
-5.365666
-9.619716
-13.484527
-15.839846
-16.236350
-14.893415
-12.309481
-8.916227
-5.042848
-1.027828
2.739149
5.921542
8.403067
10.208430
11.181857
10.918064
9.118885
5.951926
2.036507
-1.828525
-4.917401
-6.772489
-7.274980
-6.456627
-4.360031
-1.245736
2.277179
5.469262
7.651291
8.367542
7.627570
5.791886
3.261126
0.516718
-1.922756
-3.978473
-6.101006
-8.482555
-10.348172
-10.368453
-7.722083
-2.708818
3.271042
8.172592
10.240627
9.011782
5.507266
1.469532
-1.514121
-2.504111
-1.538097
0.319706
1.641792
1.630381
0.327306
-2.063232
-5.441895
-9.216449
-11.982576
-12.148972
-8.894740
-2.743839
4.526769
10.705673
14.314897
15.237681
14.274202
12.150475
8.967097
4.496757
-1.060137
-6.680496
-11.082066
-13.654352
-14.505691
-13.772672
-11.393013
-7.447074
-2.418512
2.726154
6.627718
8.034772
6.510990
2.695623
-2.046360
-6.176695
-8.476248
-8.424705
-6.330530
-3.099865
0.234888
2.920588
4.587127
5.129356
4.609219
3.231468
1.347042
-0.465742
-1.397821
-0.828419
1.087884
3.438604
5.240478
6.056472
6.067965
5.663697
4.904221
3.403654
0.818104
-2.607145
-6.058687
-8.640744
-9.840276
-9.664363
-8.344848
-5.949487
-2.436703
1.872173
6.006949
8.800523
9.808497
9.630200
9.159203
8.710161
8.029461
6.814086
4.877769
2.064808
-1.593308
-5.609327
-9.003516
-10.651224
-10.015629
-7.728722
-5.281369
-3.938069
-3.836886
-4.005980
-3.175745
-0.774943
2.647402
6.009621
8.613498
10.309360
11.003348
10.485105
8.833091
6.574645
4.136961
1.360469
-2.140447
-6.186410
-9.766870
-11.573880
-10.813940
-7.700186
-3.387092
0.658862
3.528708
5.208174
6.039157
6.069521
5.081988
3.013734
0.206591
-2.466830
-3.711237
-2.603355
0.432910
3.734899
5.586175
5.140234
2.561004
-1.109669
-4.349464
-6.014475
-6.031383
-5.139541
-3.946102
-2.552233
-1.280165
-1.141585
-2.861743
-5.722122
-8.060793
-8.857807
-8.366550
-7.259451
-5.700714
-3.510756
-0.864731
1.569249
3.106212
3.528976
3.198929
2.752268
2.621850
2.747062
2.739096
2.430191
2.201385
2.587736
3.603003
4.606707
4.835820
4.104372
3.090198
2.760383
3.260207
3.574643
2.602389
0.361148
-2.147411
-3.996212
-4.921538
-5.032002
-4.357032
-2.951904
-1.358742
-0.585848
-1.332822
-3.231987
-5.003718
-5.388511
-3.860985
-0.651299
3.437367
7.132950
9.155449
9.066442
7.627044
6.056821
4.936227
4.034428
3.058225
2.130366
1.587300
1.718812
2.599224
3.809643
4.452390
3.721258
1.495693
-1.582077
-4.500383
-6.324161
-6.476970
-5.016623
-2.789928
-1.002597
-0.326644
-0.424637
-0.471253
-0.136840
0.092200
-0.392939
-1.535120
-2.726295
-3.513148
-3.807996
-3.482404
-2.211215
0.119720
3.013081
5.464730
6.547229
6.007491
4.311257
2.128673
-0.143303
-2.379612
-4.402913
-5.796738
-6.074033
-5.090784
-3.371801
-1.845792
-1.082341
-0.992989
-1.296968
-1.821862
-2.289900
-2.357707
-2.055543
-1.819571
-1.893991
-1.870854
-1.005787
0.981905
3.513018
5.622793
6.741605
6.897290
6.315091
5.124742
3.475994
1.709225
0.258837
-0.635748
-1.077693
-1.393110
-1.952653
-2.955623
-4.139040
-4.829048
-4.544981
-3.482368
-2.269709
-1.405525
-1.014187
-0.899634
-0.667295
0.042551
1.261335
2.621467
3.574414
3.722487
3.111465
2.219879
1.527604
1.154173
0.996802
1.025934
1.269948
1.631024
1.908270
1.986165
1.894421
1.730801
1.582185
1.394702
0.877343
-0.283899
-2.005543
-3.679876
-4.602886
-4.571828
-3.952791
-3.157864
-2.280745
-1.312914
-0.462298
-0.024962
-0.009742
-0.144408
-0.309407
-0.721141
-1.548604
-2.520078
-3.106645
-3.088521
-2.762921
-2.510853
-2.331917
-1.898138
-0.908379
0.651303
2.442104
3.913756
4.581571
4.217793
2.880550
0.940524
-0.912643
-1.957785
-1.934229
-1.181133
-0.248693
0.536162
1.159190
1.719946
2.164266
2.254401
1.931211
1.594941
1.751923
2.402974
2.999944
3.002091
2.304103
1.138437
-0.178688
-1.290982
-1.871672
-1.905570
-1.749612
-1.709665
-1.681588
-1.370691
-0.766369
-0.230058
-0.093824
-0.291173
-0.449759
-0.210787
0.593124
1.822214
2.993183
3.608202
3.597483
3.247802
2.708301
1.822402
0.525373
-0.838777
-1.808814
-2.268115
-2.369286
-2.100972
-1.276721
-0.037484
0.947109
1.029460
0.208572
-0.979812
-2.114359
-3.241367
-4.516529
-5.667611
-6.103956
-5.544153
-4.252714
-2.688140
-1.187599
0.087654
1.180960
2.261163
3.325004
4.088010
4.348734
4.324486
4.378663
4.460519
4.079975
2.909531
1.209136
-0.447972
-1.717135
-2.655774
-3.472265
-4.188832
-4.517759
-4.064921
-2.694791
-0.707171
1.311043
2.763389
3.278352
2.888922
2.053438
1.372664
1.159172
1.264056
1.336818
1.206640
0.977950
0.837934
0.839636
0.865833
0.850146
0.992730
1.557832
2.463150
3.287685
3.687379
3.625958
3.216670
2.523204
1.548089
0.281928
-1.275054
-3.061022
-4.882978
-6.380770
-7.072991
-6.558321
-4.791539
-2.199798
0.491566
2.617968
3.824775
4.034562
3.342113
2.062310
0.766048
0.061978
0.194206
0.785981
1.068137
0.514338
-0.716848
-1.988994
-2.779036
-3.002196
-2.820630
-2.311471
-1.423870
-0.187310
1.157755
2.258571
2.839302
2.806191
2.234044
1.294610
0.190033
-0.901832
-1.836161
-2.435115
-2.506359
-2.017179
-1.168976
-0.220428
0.716320
1.652782
2.532688
3.110711
3.048459
2.190870
0.787829
-0.594937
-1.466529
-1.770783
-1.828797
-1.887917
-1.798712
-1.236465
-0.205746
0.821893
1.332695
1.232202
0.805192
0.350601
0.013717
-0.160207
-0.248989
-0.485656
-1.061848
-1.873640
-2.588602
-2.979125
-3.080039
-3.005419
-2.710378
-1.979725
-0.664361
1.019288
2.462527
3.073312
2.730430
1.769372
0.605043
-0.505754
-1.417517
-2.001147
-2.126774
-1.717331
-0.913241
-0.186942
-0.066856
-0.611437
-1.286531
-1.470830
