EVENT_NAME: None
EVENT_ID: INT-37989201
EVENT_DATE_YYYYMMDD: 20240327
EVENT_TIME_HHMMSS: 211936
EVENT_LATITUDE_DEGREE: 46.3583
EVENT_LONGITUDE_DEGREE: 12.8308
EVENT_DEPTH_KM: 7.0
HYPOCENTER_REFERENCE: INGV-BULLETIN
MAGNITUDE_W: 4.1
MAGNITUDE_W_REFERENCE: INGV-TERREMOTI
MAGNITUDE_L: 
MAGNITUDE_L_REFERENCE: 
FOCAL_MECHANISM: Thrust faulting
NETWORK: IV
STATION_CODE: STAL
STATION_NAME: Staligial
STATION_LATITUDE_DEGREE: 46.260100
STATION_LONGITUDE_DEGREE: 12.710400
STATION_ELEVATION_M: 625
LOCATION: 
SENSOR_DEPTH_M: 0.0
VS30_M/S: 
SITE_CLASSIFICATION_EC8: B (inferred from geology)
MORPHOLOGIC_CLASSIFICATION: 
EPICENTRAL_DISTANCE_KM: 14.3
EARTHQUAKE_BACKAZIMUTH_DEGREE: 220.4
DATE_TIME_FIRST_SAMPLE_YYYYMMDD_HHMMSS: 20240327_211919.770
DATE_TIME_FIRST_SAMPLE_PRECISION: milliseconds
SAMPLING_INTERVAL_S: 0.005000
NDATA: 20670
DURATION_S: 103.350
STREAM: HNE
UNITS: cm/s^2
INSTRUMENT: HN
INSTRUMENT_ANALOG/DIGITAL: D
INSTRUMENTAL_FREQUENCY_HZ: 
INSTRUMENTAL_DAMPING: 
FULL_SCALE_G: 
N_BIT_DIGITAL_CONVERTER: 
PGA_CM/S^2: -30.222654
TIME_PGA_S: 22.650000
BASELINE_CORRECTION: BASELINE REMOVED
FILTER_TYPE: BUTTERWORTH
FILTER_ORDER: 2
LOW_CUT_FREQUENCY_HZ: 0.100
HIGH_CUT_FREQUENCY_HZ: 40.000
LATE/NORMAL_TRIGGERED: NT
DATABASE_VERSION: 0.5
HEADER_FORMAT: DYNA 1.2
DATA_TYPE: ACCELERATION
PROCESSING: manual (Paolucci et al., 2011)
DATA_TIMESTAMP_YYYYMMDD_HHMMSS: 20240521_175642.763
DATA_LICENSE: D (network default license)
DATA_CITATION: Luzi L., Lanzano G., Felicetta C., D Amico M. C., Russo E., Sgobba S., Pacor, F., & ORFEUS Working Group 5 (2020). Engineering Strong Motion Database (ESM) (Version 2.0). Istituto Nazionale di Geofisica e Vulcanologia (INGV). https://doi.org/10.13127/ESM.2
DATA_CREATOR: ESM working group
ORIGINAL_DATA_MEDIATOR_CITATION: webservices.ingv.it
ORIGINAL_DATA_MEDIATOR: webservices.ingv.it
ORIGINAL_DATA_CREATOR_CITATION: INGV Seismological Data Centre. (1997). Rete Sismica Nazionale (RSN). Istituto Nazionale di Geofisica e Vulcanologia (INGV), Italy. https://doi.org/10.13127/SD/X0FXnH7QfY http://www.fdsn.org/networks/detail/IV/
ORIGINAL_DATA_CREATOR: network: IV (Italian National Seismic Network (INSN)); owner: Istituto Nazionale di Geofisica e Vulcanologia (INGV)
USER1: 
USER2: 
USER3: 
USER4: 
USER5: 
[...]
0.000256
0.000140
0.000031
-0.000008
0.000045
0.000203
0.000264
-0.000109
-0.000745
-0.001182
-0.001361
-0.001227
-0.000743
-0.000484
-0.000889
-0.001452
-0.001544
-0.001247
-0.000891
-0.000494
-0.000084
-0.000076
-0.000486
-0.000325
0.000754
0.001432
0.001064
0.000679
0.000913
0.001634
0.002366
0.002252
0.001437
0.000873
0.000658
0.000534
0.000542
0.000570
0.000393
-0.000036
-0.000494
-0.000672
-0.000541
-0.000260
0.000257
0.001033
0.001478
0.001096
0.000225
-0.000506
-0.000691
-0.000271
0.000323
0.000622
0.000564
0.000447
0.000547
0.000503
-0.000194
-0.001097
-0.001258
-0.000382
0.000815
0.001317
0.001009
0.000494
0.000165
0.000094
0.000097
0.000170
0.000620
0.001082
0.000876
0.000418
0.000333
0.000336
0.000294
0.000515
0.000887
0.001187
0.001395
0.001304
0.000903
0.000713
0.000850
0.000611
-0.000306
-0.001186
-0.001403
-0.001023
-0.000411
0.000104
0.000437
0.000466
0.000238
0.000465
0.001196
0.001421
0.001001
0.000802
0.001167
0.001533
0.001098
-0.000106
-0.000906
-0.000642
-0.000170
-0.000211
-0.000511
-0.000880
-0.001023
-0.000316
0.000801
0.000895
-0.000120
-0.000750
-0.000448
-0.000138
-0.000231
-0.000244
-0.000051
0.000006
-0.000139
-0.000092
0.000553
0.001411
0.001501
0.000752
0.000155
0.000069
0.000044
0.000040
0.000109
0.000058
0.000150
0.000486
0.000521
0.000193
-0.000016
0.000135
0.000486
0.000362
-0.000380
-0.000607
0.000261
0.001355
0.001832
0.001734
0.001541
0.001412
0.001173
0.000796
0.000401
0.000142
0.000025
-0.000078
-0.000138
-0.000134
-0.000149
-0.000034
0.000249
0.000303
0.000020
-0.000215
-0.000087
0.000241
0.000443
0.000744
0.001039
0.000708
0.000160
-0.000079
-0.000274
-0.000255
0.000083
0.000268
0.000390
0.000773
0.000995
0.000445
-0.000703
-0.001511
-0.001299
-0.000466
0.000084
0.000064
-0.000050
0.000227
0.000804
0.001296
0.001523
0.001399
0.000913
0.000235
-0.000241
0.000011
0.000830
0.001323
0.000945
-0.000108
-0.000944
-0.000848
-0.000597
-0.001236
-0.002182
-0.002384
-0.001843
-0.000843
0.000359
0.000749
-0.000329
-0.001625
-0.001528
-0.000296
0.000534
0.000266
-0.000319
-0.000339
0.000199
0.000749
0.000870
0.000509
-0.000120
-0.000469
0.000157
0.001584
0.002530
0.002081
0.000845
-0.000172
-0.000742
-0.000859
-0.000593
-0.000372
-0.000407
-0.000554
-0.000641
-0.000523
-0.000171
0.000347
0.000979
0.001544
0.001747
0.001564
0.001120
0.000707
0.000863
0.001321
0.001136
0.000301
-0.000543
-0.001163
-0.001375
-0.000903
0.000068
0.000929
0.001189
0.000976
0.000932
0.001229
0.001287
0.000838
0.000326
-0.000060
-0.000624
-0.001110
-0.000812
0.000064
0.000605
0.000516
0.000246
0.000251
0.000394
0.000302
0.000264
0.000642
0.000977
0.000822
0.000451
0.000038
-0.000635
-0.001315
-0.001544
-0.001530
-0.001462
-0.001022
-0.000242
0.000314
0.000532
0.000914
0.001355
0.001154
0.000530
0.000266
0.000347
0.000501
0.000596
0.000340
-0.000068
-0.000137
-0.000006
0.000171
0.000648
0.001243
0.001554
0.001425
0.000682
-0.000247
-0.000532
0.000003
0.000818
0.001032
0.000431
-0.000156
0.000028
0.000831
0.001432
0.001418
0.001179
0.001080
0.000845
0.000044
-0.000946
-0.001190
-0.000488
0.000106
-0.000214
-0.000769
-0.000947
-0.001035
-0.001033
-0.000686
-0.000067
0.000365
0.000244
-0.000007
0.000170
0.000630
0.000906
0.000917
0.000830
0.000534
0.000136
-0.000079
-0.000310
-0.000490
-0.000275
-0.000161
-0.000689
-0.001290
-0.001196
-0.000515
0.000102
0.000333
0.000231
-0.000122
-0.000275
0.000161
0.000622
0.000485
-0.000027
-0.000362
-0.000176
0.000289
0.000251
-0.000374
-0.000488
0.000484
0.001456
0.001377
0.000868
0.000877
0.001111
0.000849
0.000132
-0.000610
-0.000983
-0.000498
0.000389
0.000342
-0.000502
-0.000668
0.000111
0.000870
0.001098
0.000820
0.000245
-0.000179
-0.000301
-0.000209
0.000277
0.001183
0.002000
0.002273
0.002334
0.002584
0.002462
0.001426
0.000255
0.000047
0.000580
0.000888
0.000444
-0.000714
-0.001722
-0.001556
-0.000494
0.000472
0.000857
0.000483
-0.000327
-0.000624
-0.000040
0.000791
0.001006
0.000297
-0.000751
-0.001315
-0.001172
-0.000549
0.000179
0.000277
-0.000568
-0.001433
-0.001334
-0.000440
0.000290
0.000310
0.000008
-0.000108
-0.000051
0.000065
0.000438
0.001033
0.001367
0.001117
0.000469
0.000123
0.000631
0.001558
0.001969
0.001614
0.001088
0.000747
0.000224
-0.000358
-0.000268
0.000279
0.000530
0.000431
0.000123
-0.000491
-0.001189
-0.001238
-0.000481
0.000228
0.000452
0.000570
0.000953
0.001651
0.002066
0.001603
0.000753
0.000361
0.000467
0.000517
0.000298
0.000139
0.000289
0.000429
0.000046
-0.000481
-0.000496
-0.000400
-0.000634
-0.000838
-0.000608
-0.000028
0.000352
0.000425
0.000613
0.000749
0.000598
0.000533
0.000673
0.000702
0.000675
0.001162
0.002080
0.002102
0.000489
-0.001432
-0.001913
-0.000844
0.000640
0.001408
0.001080
0.000325
-0.000045
-0.000095
-0.000320
-0.000674
-0.000745
-0.000463
-0.000037
0.000307
0.000595
0.000886
0.000851
0.000481
0.000230
0.000089
-0.000271
-0.000705
-0.000743
-0.000258
0.000315
0.000343
-0.000069
-0.000148
0.000074
-0.000111
-0.000608
-0.000786
-0.000607
-0.000481
-0.000558
-0.000437
0.000141
0.000425
-0.000015
-0.000245
0.000253
0.000869
0.001089
0.000950
0.000820
0.000767
0.000561
0.000452
0.000647
0.000721
0.000493
0.000219
-0.000072
-0.000220
0.000054
0.000301
0.000321
0.000808
0.001735
0.002336
0.002338
0.001906
0.001418
0.001093
0.000813
0.000714
0.000972
0.001170
0.000806
0.000289
0.000349
0.000729
0.000904
0.000822
0.000396
-0.000127
-0.000135
0.000210
0.000216
-0.000050
-0.000031
0.000192
0.000117
-0.000207
-0.000202
0.000274
0.000731
0.000942
0.001173
0.001529
0.001785
0.001757
0.001620
0.001630
0.001551
0.000962
0.000065
-0.000520
-0.000494
0.000012
0.000505
0.000521
0.000281
0.000317
0.000839
0.001515
0.001526
0.000678
-0.000100
-0.000262
-0.000136
0.000212
0.000591
0.000555
0.000422
0.000438
0.000341
0.000230
0.000263
0.000291
0.000208
0.000108
0.000003
-0.000252
-0.000549
-0.000504
-0.000041
0.000453
0.000825
0.000987
0.000466
-0.000530
-0.000947
-0.000380
0.000524
0.000913
0.000584
0.000070
-0.000026
0.000349
0.000739
0.000951
0.001260
0.001534
0.001273
0.000541
-0.000113
-0.000377
-0.000202
0.000414
0.001158
0.001499
0.001335
0.000934
0.000699
0.000972
0.001250
0.000582
-0.000790
-0.001634
-0.001436
-0.000735
0.000003
0.000661
0.001012
0.001194
0.001610
0.001928
0.001641
0.000991
0.000395
0.000018
0.000058
0.000496
0.000857
0.000600
-0.000244
-0.000775
-0.000301
0.000610
0.000965
0.000616
0.000170
0.000060
0.000254
0.000559
0.001021
0.001674
0.001753
0.000929
0.000277
0.000292
0.000397
0.000362
0.000279
0.000114
-0.000348
-0.000965
-0.000965
-0.000245
0.000519
0.000848
0.000404
-0.000483
-0.000592
0.000430
0.001364
0.001439
0.001342
0.001494
0.001383
0.000806
0.000067
-0.000447
-0.000202
0.000577
0.000855
0.000524
0.000167
-0.000092
-0.000312
-0.000411
-0.000220
-0.000045
-0.000319
-0.000652
-0.000501
0.000159
0.000672
0.000313
-0.000270
-0.000093
0.000586
0.001109
0.001238
0.001104
0.001077
0.001110
0.000644
-0.000266
-0.000985
-0.001220
-0.000866
-0.000116
0.000388
0.000371
0.000140
0.000112
0.000409
0.000613
0.000468
0.000433
0.000639
0.000583
0.000093
-0.000379
-0.000131
0.000915
0.001560
0.000895
-0.000057
-0.000249
-0.000172
-0.000273
-0.000579
-0.001111
-0.001264
-0.000836
-0.000532
-0.000262
0.000325
0.000629
0.000475
0.000369
0.000548
0.001132
0.001764
0.001697
0.001060
0.000528
0.000325
0.000595
0.001314
0.001865
0.001852
0.001496
0.001024
0.000493
0.000109
0.000148
0.000529
0.001014
0.001387
0.001291
0.000707
-0.000088
-0.000808
-0.001060
-0.000770
-0.000246
0.000226
0.000618
0.000918
0.001010
0.001183
0.001442
0.001035
0.000141
-0.000045
0.000596
0.001136
0.001155
0.000815
0.000374
0.000037
-0.000231
-0.000553
-0.000886
-0.000920
-0.000621
-0.000508
-0.000576
-0.000292
0.000237
0.000611
0.000754
0.000627
0.000334
0.000246
0.000421
0.000667
0.000880
0.000707
0.000093
-0.000296
-0.000134
0.000060
-0.000198
-0.000519
-0.000301
0.000251
0.000735
0.001091
0.000973
0.000264
-0.000320
-0.000314
0.000216
0.000968
0.001237
0.000766
0.000202
0.000109
0.000387
0.000761
0.000904
0.000448
-0.000130
0.000020
0.000686
0.001179
0.001380
0.001522
0.002095
0.003172
0.003173
-0.000421
-0.009721
-0.025285
-0.044456
-0.063112
-0.079950
-0.096174
-0.111839
-0.123766
-0.125764
-0.113813
-0.092086
-0.070020
-0.053310
-0.037935
-0.015054
0.011451
0.014289
-0.039847
-0.158132
-0.311589
-0.459887
-0.581163
-0.673052
-0.731033
-0.740610
-0.695964
-0.613937
-0.515728
-0.389681
-0.181680
0.151288
0.560622
0.887138
0.955129
0.745153
0.491693
0.516523
0.883926
1.281702
1.327096
0.969534
0.534031
0.349718
0.383129
0.331367
0.064342
-0.199367
-0.253617
-0.308265
-0.846009
-2.005006
-3.175308
-3.429445
-2.484000
-1.060722
-0.151963
-0.061869
-0.282139
-0.168427
0.491791
1.536425
2.733185
3.903752
4.854702
5.251683
4.758594
3.500935
2.154582
1.322163
0.931245
0.349553
-0.890738
-2.540003
-3.973711
-4.952838
-5.667716
-6.142116
-6.047895
-5.151451
-3.705933
-2.310825
-1.315321
-0.370615
1.159420
3.269555
5.113703
5.799923
5.142540
3.709827
2.399290
1.870460
2.099241
2.469510
2.425286
1.926636
1.258377
0.712347
0.450844
0.348369
0.051574
-0.646161
-1.685457
-2.927755
-4.182195
-5.127622
-5.380906
-4.715167
-3.278612
-1.465587
0.459058
2.319078
3.740442
4.358347
4.123274
3.077995
1.273551
-0.801124
-2.280757
-2.728522
-2.481710
-2.084691
-1.776328
-1.637528
-1.694740
-1.457001
0.062545
3.061477
6.013813
6.809641
4.775174
1.192357
-1.932720
-3.290639
-2.868809
-1.734842
-1.238496
-2.116924
-4.105476
-6.165547
-7.109240
-6.368671
-4.346671
-1.928414
0.231353
1.833770
2.769225
3.214349
3.650506
4.406998
5.246817
5.629454
5.353130
4.755981
4.258116
3.924597
3.589240
3.108801
2.319963
1.078733
-0.516579
-2.216413
-3.875292
-5.369116
-6.460206
-6.936617
-6.719331
-5.817409
-4.295436
-2.220120
0.333604
3.094311
5.505938
6.952919
7.099220
6.121844
4.636075
3.226927
2.074075
1.127799
0.384394
-0.205814
-0.789426
-1.359095
-1.661988
-1.472302
-0.895558
-0.458328
-0.871606
-2.476394
-4.819279
-6.831264
-7.455489
-6.284925
-3.892134
-1.512335
-0.151422
0.069757
-0.198936
-0.076147
0.993178
2.832441
4.605642
5.474576
5.282364
4.592206
4.053182
3.704793
2.932384
1.172432
-1.438140
-4.180228
-6.281557
-7.208259
-6.741699
-5.078892
-2.814388
-0.675184
0.765004
1.306587
1.332001
1.614830
2.556644
3.680135
4.120192
3.566447
2.539866
1.727715
1.268716
0.893563
0.508938
0.216875
-0.092192
-0.714624
-1.654803
-2.366454
-2.087161
-0.527879
1.720048
3.492483
3.850203
2.728138
0.867771
-0.869678
-2.012905
-2.434994
-2.205590
-1.584881
-0.917506
-0.449902
-0.241526
-0.084925
0.461870
1.677557
3.198885
4.109809
3.716012
2.232529
0.544147
-0.683145
-1.464110
-2.209173
-3.266000
-4.652870
-6.051073
-7.020063
-7.146640
-6.137083
-4.116587
-1.758685
0.153870
1.227107
1.553764
1.568658
1.708119
2.032170
2.352892
2.728910
3.414768
4.242812
4.569026
4.058915
3.107321
2.228983
1.375245
0.173164
-1.360690
-2.655809
-3.078918
-2.476259
-1.330693
-0.410439
-0.140664
-0.280005
-0.223085
0.408184
1.467335
2.531642
3.302924
3.623204
3.333957
2.448725
1.315090
0.367545
-0.204116
-0.545002
-1.027433
-2.006791
-3.588433
-5.521590
-7.122812
-7.436760
-5.916761
-2.983388
0.325545
3.149939
5.180216
6.530374
7.406850
7.855108
7.778516
7.033915
5.470080
3.120624
0.373317
-2.227154
-4.260919
-5.489059
-5.883320
-5.683561
-5.256879
-4.880997
-4.707393
-4.727738
-4.645999
-4.066611
-3.061641
-2.344949
-2.549208
-3.359289
-3.677286
-2.744797
-0.860816
1.085598
2.519595
3.502788
4.398237
5.395356
6.259347
6.492594
5.897390
4.909704
4.106746
3.536924
2.816515
1.664823
0.117203
-1.607512
-3.262691
-4.557650
-5.105545
-4.704507
-3.694123
-2.645119
-1.689863
-0.527809
1.006508
2.669652
3.955618
4.407679
3.988432
3.211767
2.795386
3.088601
3.759631
4.094285
3.758865
3.168018
2.903832
2.968139
2.861147
2.194704
0.943839
-0.787303
-2.952571
-5.454765
-7.980212
-10.027494
-11.128080
-11.085769
-10.034692
-8.257788
-5.982235
-3.432231
-1.017665
0.758100
1.698438
2.147990
2.715579
3.673789
4.601175
4.737528
3.806447
2.343676
1.067859
0.156438
-0.616408
-1.289749
-1.613922
-1.401440
-0.764956
-0.088614
0.213936
-0.000062
-0.545371
-1.100155
-1.419168
-1.486686
-1.540295
-1.891733
-2.657247
-3.609324
-4.271973
-4.188735
-3.165364
-1.376079
0.674604
2.366594
3.268867
3.244263
2.300563
0.549835
-1.606031
-3.493024
-4.603765
-5.001124
-5.201555
-5.672623
-6.479675
-7.310698
-7.590446
-6.573832
-3.698149
0.961951
6.656558
12.319260
16.966408
20.053222
21.712462
22.603711
23.299760
23.578362
22.255405
17.920806
10.075405
-0.301971
-11.174029
-20.478772
-26.967384
-30.222654
-30.169142
-26.837280
-20.499812
-11.804892
-1.736527
8.457638
17.309214
23.387791
25.839781
24.728525
20.822341
15.136649
8.637934
2.144695
-3.697305
-8.432098
-11.743123
-13.294842
-12.735288
-10.074920
-6.001113
-1.631072
2.049942
4.548139
5.848948
6.234939
6.134879
5.862191
5.229076
3.540779
0.248567
-4.368608
-9.196251
-12.762721
-13.799557
-11.760536
-6.998704
-0.466840
6.581824
12.592273
15.973481
15.927020
12.874047
7.890747
1.952801
-4.330467
-10.592179
-16.415580
-21.142223
-24.027889
-24.572511
-22.702183
-18.699611
-12.928499
-5.717744
2.261511
9.696165
15.196996
18.280569
19.638166
20.443228
21.414620
22.430326
22.872235
22.144770
19.821957
15.588300
9.376115
1.634547
-6.618829
-14.115037
-19.830088
-23.296226
-24.574244
-24.031122
-22.013119
-18.500136
-13.134375
-5.862064
2.343489
9.488968
13.488974
13.431719
10.223369
5.946966
2.396151
0.165836
-1.088235
-2.004375
-3.123319
-4.589502
-5.994825
-6.738365
-6.724801
-6.646159
-7.450123
-9.489516
-12.122215
-14.038870
-14.099658
-12.130712
-9.005504
-5.893036
-3.432079
-1.624938
-0.378270
0.079945
-0.447159
-1.323299
-1.004226
1.841891
7.169061
13.602054
19.461339
23.730969
26.367987
27.862684
28.462169
27.849503
25.567379
21.579509
16.321063
10.376274
4.310754
-1.262878
-5.732787
-8.859234
-11.106986
-13.271614
-15.526974
-16.966252
-16.245946
-12.691632
-6.896756
-0.523941
4.479892
6.891125
6.816826
5.346200
3.578279
2.051872
0.874227
-0.065665
-1.011046
-2.102032
-3.207607
-4.217124
-5.341031
-6.800819
-8.343362
-9.331307
-9.201390
-7.650885
-4.659027
-0.715765
3.129374
5.826063
6.952125
6.695598
5.416152
3.445072
1.171758
-0.996175
-2.886413
-4.625758
-6.293129
-7.587454
-8.004819
-7.353400
-5.973057
-4.422551
-3.090966
-2.140267
-1.562455
-1.148169
-0.690530
-0.390960
-0.747511
-1.851659
-3.073359
-3.646727
-3.347722
-2.386949
-0.833961
1.521424
4.657083
7.835659
9.823107
9.681558
7.410482
3.932837
0.595598
-1.408682
-1.557353
-0.321086
1.043150
1.325314
0.230941
-1.520267
-2.859369
-3.039531
-1.885254
0.247162
2.674043
4.688542
5.763064
5.560415
3.957637
1.285736
-1.459892
-3.022929
-2.864222
-1.710351
-0.935361
-1.329219
-2.483140
-3.312298
-3.020431
-1.574489
0.456203
2.323714
3.538871
4.156267
4.658960
5.436635
6.321451
6.652190
5.789881
3.572522
0.339117
-3.355631
-6.997564
-10.229920
-12.880626
-14.859133
-15.963198
-15.836284
-14.148109
-10.783128
-5.953242
-0.333835
4.921192
8.594058
10.124780
10.002091
9.350208
9.035730
9.167084
9.389311
9.460011
9.445842
9.495248
9.561212
9.317006
8.317314
6.384586
3.905405
1.602154
-0.064792
-1.212967
-2.301718
-3.692475
-5.423882
-7.286091
-9.008277
-10.342557
-10.993339
-10.608960
-9.067702
-6.799399
-4.641461
-3.315718
-3.037724
-3.432685
-3.698995
-3.062648
-1.333305
0.964406
3.033636
4.313563
4.658293
4.286738
3.636574
3.138645
3.022041
3.300701
3.916047
4.826861
5.952568
7.126830
8.171815
8.964490
9.357892
9.060637
7.715605
5.220043
2.001502
-1.052204
-2.999654
-3.337810
-2.284588
-0.643763
0.677916
1.154275
0.817201
0.058564
-0.772004
-1.659635
-2.907625
-4.835142
-7.371928
-9.873113
-11.418743
-11.458428
-10.258863
-8.702486
-7.595585
-7.151524
-7.051614
-6.804487
-6.028374
-4.652710
-3.018257
-1.692682
-1.093510
-1.239559
-1.725383
-1.867531
-1.054965
0.848393
3.424583
6.016521
8.072323
9.274851
9.583727
9.278956
8.834953
8.555273
8.306642
7.744878
6.839780
6.014369
5.661158
5.654086
5.440778
4.506704
2.711776
0.364824
-1.890353
-3.367895
-3.701889
-3.009581
-1.734529
-0.345631
0.833442
1.566293
1.601477
0.758672
-0.872710
-2.916028
-4.913104
-6.503978
-7.451958
-7.604898
-6.921617
-5.600782
-4.131048
-3.063570
-2.671697
-2.804937
-2.973976
-2.589835
-1.332357
0.552974
2.337756
3.261574
3.003331
1.849395
0.494093
-0.338478
-0.237155
0.683421
1.831014
2.564200
2.724595
2.724711
3.080958
3.891913
4.745550
5.058242
4.512228
3.254575
1.734711
0.370795
-0.633919
-1.243720
-1.507636
-1.586106
-1.767273
-2.297358
-3.149964
-4.029140
-4.633213
-4.904115
-5.024466
-5.201676
-5.472510
-5.699289
-5.735687
-5.593653
-5.434917
-5.394162
-5.447383
-5.463165
-5.330203
-5.019546
-4.558380
-3.923577
-2.922843
-1.261031
1.164707
4.060937
6.860087
8.985209
10.046582
9.971875
9.046832
7.774010
6.588926
5.643050
4.829553
3.984804
3.053124
2.134189
1.451774
1.226195
1.466022
1.871388
2.018268
1.686794
1.028425
0.439730
0.257705
0.519801
0.974092
1.275826
1.143001
0.387028
-1.065235
-3.085526
-5.300874
-7.210979
-8.395575
-8.651911
-8.022259
-6.755650
-5.209385
-3.706575
-2.430393
-1.399099
-0.497444
0.438498
1.491061
2.560933
3.378538
3.640020
3.199466
2.205730
1.081182
0.306058
0.141126
0.536503
1.267665
2.066075
2.648411
2.801462
2.540914
2.139314
1.937976
2.093820
2.467516
2.755362
2.762153
2.548909
2.301133
2.087085
1.808687
1.396208
1.003110
0.953169
1.444164
2.287385
2.962331
2.959182
2.098024
0.565941
-1.287460
-3.162140
-4.853973
-6.181152
-6.973600
-7.181808
-6.953009
-6.531550
-6.057098
-5.464753
-4.579737
-3.307409
-1.751053
-0.181906
1.090728
1.845092
1.992533
1.575582
0.782903
-0.047383
-0.503378
-0.259716
0.776479
2.447519
4.429056
6.330723
7.811982
8.700112
8.996266
8.727766
7.825399
6.217048
4.054315
1.785698
-0.057769
-1.182318
-1.679628
-1.903978
-2.204455
-2.716454
-3.339692
-3.886581
-4.220690
-4.235585
-3.812395
-2.933129
-1.791322
-0.683944
0.187688
0.764718
1.040562
0.996331
0.608834
-0.103144
-1.023772
