EVENT_NAME: None
EVENT_ID: INT-37989201
EVENT_DATE_YYYYMMDD: 20240327
EVENT_TIME_HHMMSS: 211936
EVENT_LATITUDE_DEGREE: 46.3583
EVENT_LONGITUDE_DEGREE: 12.8308
EVENT_DEPTH_KM: 7.0
HYPOCENTER_REFERENCE: INGV-BULLETIN
MAGNITUDE_W: 4.1
MAGNITUDE_W_REFERENCE: INGV-TERREMOTI
MAGNITUDE_L: 
MAGNITUDE_L_REFERENCE: 
FOCAL_MECHANISM: Thrust faulting
NETWORK: IV
STATION_CODE: STAL
STATION_NAME: Staligial
STATION_LATITUDE_DEGREE: 46.260100
STATION_LONGITUDE_DEGREE: 12.710400
STATION_ELEVATION_M: 625
LOCATION: 
SENSOR_DEPTH_M: 0.0
VS30_M/S: 
SITE_CLASSIFICATION_EC8: B (inferred from geology)
MORPHOLOGIC_CLASSIFICATION: 
EPICENTRAL_DISTANCE_KM: 14.3
EARTHQUAKE_BACKAZIMUTH_DEGREE: 220.4
DATE_TIME_FIRST_SAMPLE_YYYYMMDD_HHMMSS: 20240327_211919.650
DATE_TIME_FIRST_SAMPLE_PRECISION: milliseconds
SAMPLING_INTERVAL_S: 0.005000
NDATA: 20692
DURATION_S: 103.460
STREAM: HHZ
UNITS: cm/s^2
INSTRUMENT: HH
INSTRUMENT_ANALOG/DIGITAL: D
INSTRUMENTAL_FREQUENCY_HZ: 
INSTRUMENTAL_DAMPING: 
FULL_SCALE_G: 
N_BIT_DIGITAL_CONVERTER: 
PGA_CM/S^2: -12.630291
TIME_PGA_S: 22.670000
BASELINE_CORRECTION: BASELINE REMOVED
FILTER_TYPE: BUTTERWORTH
FILTER_ORDER: 2
LOW_CUT_FREQUENCY_HZ: 0.100
HIGH_CUT_FREQUENCY_HZ: 40.000
LATE/NORMAL_TRIGGERED: NT
DATABASE_VERSION: 0.5
HEADER_FORMAT: DYNA 1.2
DATA_TYPE: ACCELERATION
PROCESSING: manual (Paolucci et al., 2011)
DATA_TIMESTAMP_YYYYMMDD_HHMMSS: 20240521_175642.622
DATA_LICENSE: D (network default license)
DATA_CITATION: Luzi L., Lanzano G., Felicetta C., D Amico M. C., Russo E., Sgobba S., Pacor, F., & ORFEUS Working Group 5 (2020). Engineering Strong Motion Database (ESM) (Version 2.0). Istituto Nazionale di Geofisica e Vulcanologia (INGV). https://doi.org/10.13127/ESM.2
DATA_CREATOR: ESM working group
ORIGINAL_DATA_MEDIATOR_CITATION: webservices.ingv.it
ORIGINAL_DATA_MEDIATOR: webservices.ingv.it
ORIGINAL_DATA_CREATOR_CITATION: INGV Seismological Data Centre. (1997). Rete Sismica Nazionale (RSN). Istituto Nazionale di Geofisica e Vulcanologia (INGV), Italy. https://doi.org/10.13127/SD/X0FXnH7QfY http://www.fdsn.org/networks/detail/IV/
ORIGINAL_DATA_CREATOR: network: IV (Italian National Seismic Network (INSN)); owner: Istituto Nazionale di Geofisica e Vulcanologia (INGV)
USER1: 
USER2: 
USER3: 
USER4: 
USER5: 
[...]
0.000049
0.000015
0.000047
0.000143
0.000203
0.000143
0.000009
-0.000091
-0.000098
-0.000032
0.000027
0.000013
-0.000079
-0.000207
-0.000318
-0.000371
-0.000351
-0.000267
-0.000156
-0.000041
0.000078
0.000180
0.000204
0.000101
-0.000087
-0.000267
-0.000351
-0.000314
-0.000198
-0.000061
0.000064
0.000163
0.000214
0.000195
0.000110
-0.000008
-0.000099
-0.000124
-0.000088
-0.000037
-0.000020
-0.000058
-0.000126
-0.000172
-0.000150
-0.000058
0.000056
0.000129
0.000130
0.000069
-0.000020
-0.000109
-0.000194
-0.000274
-0.000326
-0.000321
-0.000250
-0.000136
-0.000034
0.000009
-0.000018
-0.000080
-0.000125
-0.000114
-0.000050
0.000040
0.000124
0.000174
0.000172
0.000111
0.000018
-0.000063
-0.000092
-0.000082
-0.000101
-0.000190
-0.000284
-0.000277
-0.000127
0.000091
0.000213
0.000125
-0.000114
-0.000352
-0.000462
-0.000413
-0.000266
-0.000114
-0.000012
0.000031
0.000030
0.000007
-0.000025
-0.000067
-0.000128
-0.000194
-0.000217
-0.000159
-0.000043
0.000059
0.000073
-0.000015
-0.000124
-0.000160
-0.000094
0.000020
0.000084
0.000041
-0.000069
-0.000161
-0.000175
-0.000125
-0.000085
-0.000097
-0.000110
-0.000045
0.000104
0.000249
0.000259
0.000082
-0.000175
-0.000353
-0.000370
-0.000251
-0.000092
0.000022
0.000064
0.000045
-0.000019
-0.000102
-0.000162
-0.000161
-0.000098
-0.000012
0.000041
0.000045
0.000042
0.000071
0.000104
0.000082
-0.000022
-0.000172
-0.000281
-0.000287
-0.000206
-0.000100
-0.000021
0.000004
-0.000027
-0.000083
-0.000104
-0.000060
0.000013
0.000047
-0.000000
-0.000105
-0.000192
-0.000218
-0.000227
-0.000258
-0.000262
-0.000173
-0.000001
0.000172
0.000250
0.000199
0.000072
-0.000055
-0.000155
-0.000221
-0.000236
-0.000190
-0.000112
-0.000052
-0.000036
-0.000052
-0.000051
-0.000012
0.000027
0.000021
-0.000012
-0.000026
0.000008
0.000066
0.000088
0.000036
-0.000055
-0.000122
-0.000132
-0.000095
-0.000055
-0.000040
-0.000042
-0.000046
-0.000065
-0.000113
-0.000170
-0.000191
-0.000148
-0.000049
0.000053
0.000107
0.000100
0.000046
-0.000036
-0.000123
-0.000188
-0.000219
-0.000221
-0.000200
-0.000136
-0.000013
0.000146
0.000275
0.000295
0.000181
0.000011
-0.000106
-0.000108
-0.000015
0.000094
0.000143
0.000108
0.000021
-0.000066
-0.000115
-0.000129
-0.000126
-0.000116
-0.000086
-0.000018
0.000071
0.000119
0.000081
-0.000012
-0.000099
-0.000156
-0.000188
-0.000208
-0.000217
-0.000208
-0.000171
-0.000101
-0.000000
0.000119
0.000224
0.000268
0.000240
0.000192
0.000171
0.000161
0.000123
0.000056
-0.000014
-0.000065
-0.000091
-0.000098
-0.000081
-0.000029
0.000051
0.000112
0.000124
0.000112
0.000113
0.000118
0.000099
0.000056
0.000007
-0.000028
-0.000054
-0.000094
-0.000150
-0.000172
-0.000125
-0.000043
0.000009
0.000007
-0.000020
-0.000014
0.000042
0.000084
0.000049
-0.000035
-0.000088
-0.000053
0.000045
0.000105
0.000060
-0.000035
-0.000084
-0.000054
0.000032
0.000137
0.000235
0.000311
0.000343
0.000294
0.000155
-0.000031
-0.000194
-0.000280
-0.000272
-0.000193
-0.000088
0.000008
0.000086
0.000162
0.000226
0.000220
0.000099
-0.000103
-0.000287
-0.000360
-0.000292
-0.000142
0.000013
0.000145
0.000247
0.000296
0.000271
0.000192
0.000094
-0.000003
-0.000084
-0.000124
-0.000108
-0.000054
-0.000008
-0.000006
-0.000045
-0.000072
-0.000047
0.000015
0.000087
0.000174
0.000266
0.000296
0.000218
0.000078
-0.000024
-0.000021
0.000068
0.000138
0.000115
0.000040
-0.000019
-0.000052
-0.000087
-0.000123
-0.000142
-0.000134
-0.000099
-0.000038
0.000043
0.000126
0.000171
0.000137
0.000038
-0.000035
-0.000006
0.000099
0.000202
0.000252
0.000250
0.000223
0.000194
0.000156
0.000110
0.000083
0.000088
0.000094
0.000065
0.000011
-0.000033
-0.000040
-0.000017
0.000006
0.000008
0.000004
0.000006
-0.000004
-0.000049
-0.000123
-0.000186
-0.000197
-0.000145
-0.000075
-0.000043
-0.000068
-0.000122
-0.000150
-0.000117
-0.000041
0.000034
0.000083
0.000102
0.000095
0.000075
0.000063
0.000085
0.000159
0.000260
0.000319
0.000295
0.000230
0.000186
0.000164
0.000120
0.000018
-0.000120
-0.000215
-0.000223
-0.000193
-0.000181
-0.000169
-0.000125
-0.000081
-0.000100
-0.000196
-0.000306
-0.000324
-0.000210
-0.000047
0.000056
0.000074
0.000044
0.000005
-0.000014
0.000012
0.000088
0.000178
0.000225
0.000193
0.000093
-0.000018
-0.000080
-0.000087
-0.000061
-0.000028
-0.000007
-0.000014
-0.000052
-0.000107
-0.000168
-0.000235
-0.000306
-0.000354
-0.000348
-0.000280
-0.000167
-0.000041
0.000073
0.000164
0.000209
0.000170
0.000043
-0.000099
-0.000165
-0.000125
-0.000019
0.000078
0.000122
0.000126
0.000098
-0.000005
-0.000196
-0.000384
-0.000443
-0.000324
-0.000103
0.000062
0.000072
-0.000016
-0.000083
-0.000084
-0.000044
-0.000005
0.000004
-0.000016
-0.000049
-0.000083
-0.000113
-0.000138
-0.000166
-0.000193
-0.000200
-0.000149
-0.000039
0.000063
0.000080
-0.000005
-0.000152
-0.000294
-0.000372
-0.000365
-0.000280
-0.000149
-0.000024
0.000039
0.000014
-0.000066
-0.000153
-0.000228
-0.000296
-0.000370
-0.000432
-0.000430
-0.000334
-0.000180
-0.000055
-0.000043
-0.000143
-0.000253
-0.000264
-0.000173
-0.000052
0.000022
0.000021
-0.000026
-0.000082
-0.000145
-0.000211
-0.000240
-0.000205
-0.000134
-0.000076
-0.000054
-0.000053
-0.000051
-0.000040
-0.000044
-0.000085
-0.000158
-0.000236
-0.000290
-0.000306
-0.000290
-0.000271
-0.000289
-0.000354
-0.000424
-0.000443
-0.000394
-0.000294
-0.000176
-0.000077
-0.000028
-0.000046
-0.000123
-0.000226
-0.000309
-0.000341
-0.000328
-0.000278
-0.000184
-0.000050
0.000076
0.000125
0.000058
-0.000104
-0.000275
-0.000363
-0.000332
-0.000228
-0.000147
-0.000160
-0.000244
-0.000325
-0.000341
-0.000292
-0.000231
-0.000212
-0.000226
-0.000249
-0.000279
-0.000324
-0.000368
-0.000394
-0.000399
-0.000392
-0.000373
-0.000322
-0.000211
-0.000058
0.000051
0.000048
-0.000041
-0.000147
-0.000236
-0.000304
-0.000343
-0.000338
-0.000285
-0.000209
-0.000167
-0.000191
-0.000250
-0.000302
-0.000338
-0.000362
-0.000353
-0.000302
-0.000243
-0.000218
-0.000228
-0.000237
-0.000203
-0.000133
-0.000096
-0.000138
-0.000210
-0.000239
-0.000214
-0.000177
-0.000170
-0.000201
-0.000245
-0.000272
-0.000278
-0.000276
-0.000271
-0.000265
-0.000251
-0.000227
-0.000204
-0.000202
-0.000250
-0.000338
-0.000395
-0.000354
-0.000208
-0.000026
0.000088
0.000063
-0.000084
-0.000281
-0.000459
-0.000564
-0.000562
-0.000455
-0.000294
-0.000150
-0.000086
-0.000115
-0.000201
-0.000288
-0.000340
-0.000341
-0.000291
-0.000208
-0.000133
-0.000096
-0.000090
-0.000086
-0.000073
-0.000070
-0.000117
-0.000220
-0.000329
-0.000370
-0.000308
-0.000163
-0.000005
0.000081
0.000031
-0.000153
-0.000379
-0.000528
-0.000527
-0.000390
-0.000221
-0.000122
-0.000119
-0.000185
-0.000279
-0.000371
-0.000441
-0.000465
-0.000414
-0.000281
-0.000107
0.000023
0.000015
-0.000156
-0.000408
-0.000595
-0.000597
-0.000397
-0.000109
0.000124
0.000227
0.000204
0.000100
-0.000039
-0.000192
-0.000341
-0.000451
-0.000481
-0.000407
-0.000256
-0.000118
-0.000082
-0.000175
-0.000331
-0.000421
-0.000370
-0.000240
-0.000150
-0.000166
-0.000263
-0.000348
-0.000358
-0.000316
-0.000274
-0.000234
-0.000165
-0.000055
0.000069
0.000143
0.000117
-0.000010
-0.000194
-0.000377
-0.000494
-0.000497
-0.000384
-0.000225
-0.000101
-0.000048
-0.000062
-0.000124
-0.000223
-0.000352
-0.000476
-0.000524
-0.000453
-0.000293
-0.000112
0.000042
0.000132
0.000117
-0.000015
-0.000220
-0.000413
-0.000505
-0.000462
-0.000328
-0.000174
-0.000045
0.000019
-0.000029
-0.000203
-0.000433
-0.000609
-0.000641
-0.000515
-0.000315
-0.000159
-0.000123
-0.000209
-0.000345
-0.000448
-0.000475
-0.000423
-0.000303
-0.000129
0.000071
0.000224
0.000222
0.000028
-0.000240
-0.000401
-0.000358
-0.000161
0.000027
0.000095
0.000098
0.000118
0.000108
-0.000047
-0.000389
-0.000812
-0.001078
-0.001010
-0.000654
-0.000203
0.000145
0.000269
0.000161
-0.000089
-0.000338
-0.000466
-0.000432
-0.000278
-0.000084
0.000072
0.000143
0.000104
-0.000057
-0.000299
-0.000511
-0.000591
-0.000520
-0.000368
-0.000234
-0.000182
-0.000205
-0.000267
-0.000352
-0.000449
-0.000524
-0.000529
-0.000426
-0.000240
-0.000069
-0.000011
-0.000080
-0.000214
-0.000324
-0.000370
-0.000382
-0.000361
-0.000227
0.000046
0.000304
0.000344
0.000107
-0.000261
-0.000508
-0.000551
-0.000582
-0.000691
-0.000612
-0.000176
0.000280
0.000340
0.000196
0.001013
0.005073
0.015546
0.035857
0.068152
0.111532
0.161021
0.207854
0.242278
0.255932
0.241678
0.194553
0.117593
0.026789
-0.052724
-0.094994
-0.083023
-0.013662
0.109857
0.285367
0.507310
0.758347
1.005694
1.204549
1.313342
1.307886
1.182233
0.945517
0.621938
0.252727
-0.107469
-0.407518
-0.635948
-0.835510
-1.046069
-1.244489
-1.360309
-1.340356
-1.235011
-1.215594
-1.415953
-1.788103
-2.170150
-2.421633
-2.490076
-2.385103
-2.046720
-1.303342
-0.114162
1.228503
2.300969
2.871292
3.050786
3.206258
3.524285
3.708555
3.323875
2.259963
0.803561
-0.561568
-1.548152
-2.276589
-2.927861
-3.388699
-3.424756
-3.014004
-2.455972
-2.218847
-2.466157
-2.757827
-2.472874
-1.359983
0.346167
2.096984
3.422741
4.211479
4.559331
4.542647
4.197904
3.583337
2.797655
1.961569
1.181345
0.515025
-0.043160
-0.556683
-1.096861
-1.685228
-2.267206
-2.725729
-2.962272
-2.970227
-2.820606
-2.607734
-2.378805
-2.075415
-1.540264
-0.603310
0.723480
2.144998
3.309036
4.046823
4.324326
4.099104
3.279744
1.812937
-0.098779
-1.919739
-3.148093
-3.680255
-3.720509
-3.540989
-3.336391
-3.160711
-2.931678
-2.462110
-1.545192
-0.071876
1.843060
3.812280
5.342652
6.040008
5.716916
4.464084
2.686145
1.016852
-0.050941
-0.504011
-0.739090
-1.281067
-2.398935
-3.865556
-5.159109
-5.784993
-5.481244
-4.295742
-2.487293
-0.410265
1.525906
2.899833
3.420390
3.091562
2.267453
1.545169
1.378246
1.755643
2.329891
2.699303
2.622610
2.110411
1.318391
0.421259
-0.411286
-1.017776
-1.308836
-1.342658
-1.324716
-1.524810
-2.071830
-2.782805
-3.238122
-3.014614
-2.027815
-0.700376
0.398227
0.980092
1.106473
1.054364
1.078256
1.251515
1.544079
1.922818
2.308401
2.526976
2.410003
1.912855
1.107550
0.118873
-0.942505
-2.018939
-3.080233
-4.069453
-4.846555
-5.179964
-4.866193
-3.876040
-2.416330
-0.883492
0.369325
1.258010
1.972518
2.838671
4.047680
5.450025
6.647148
7.216095
6.957372
6.010161
4.643052
3.022949
1.234799
-0.602129
-2.267781
-3.475132
-4.062181
-4.151773
-4.058857
-4.076303
-4.243957
-4.266226
-3.802174
-2.794080
-1.497756
-0.302569
0.606290
1.398791
2.207864
2.770811
2.689928
1.850947
0.543947
-0.664708
-1.305528
-1.276564
-0.691101
0.313742
1.492721
2.405172
2.630370
2.022678
0.720858
-0.948811
-2.576451
-3.749848
-4.129256
-3.552756
-2.167189
-0.442564
1.131887
2.348133
3.240464
3.903732
4.323171
4.320128
3.736985
2.639590
1.313140
0.111502
-0.807164
-1.610889
-2.510435
-3.450218
-4.161918
-4.389106
-4.113736
-3.610999
-3.141085
-2.678483
-2.066629
-1.260844
-0.351017
0.516936
1.209749
1.634959
1.727739
1.462958
0.939389
0.423582
0.211884
0.460237
1.122439
1.955310
2.600790
2.719794
2.186988
1.221172
0.260166
-0.271392
-0.191054
0.345978
1.061532
1.786965
2.444416
2.921158
2.984937
2.344511
0.966939
-0.692475
-1.954161
-2.338061
-1.844636
-0.987981
-0.382423
-0.317578
-0.721371
-1.307435
-1.791406
-2.050288
-2.118727
-2.127841
-2.232323
-2.542341
-3.058068
-3.612435
-3.874416
-3.441136
-2.090932
0.001625
2.341258
4.342232
5.629148
6.192089
6.151175
5.512858
4.267680
2.572027
0.751595
-0.819544
-1.914399
-2.560983
-2.895065
-3.002917
-2.964070
-2.916599
-2.968675
-3.090107
-3.142832
-2.974898
-2.514885
-1.822229
-1.032969
-0.270062
0.430934
1.142048
1.939817
2.776724
3.441061
3.644367
3.296815
2.670915
2.115728
1.719233
1.317150
0.690112
-0.178925
-1.000917
-1.466361
-1.545699
-1.441454
-1.391262
-1.482126
-1.578246
-1.485547
-1.147338
-0.682345
-0.301883
-0.113922
-0.005672
0.192530
0.511364
0.851547
1.089669
1.186556
1.218210
1.256200
1.278932
1.274443
1.328897
1.492726
1.631698
1.498208
0.902121
-0.133223
-1.330205
-2.362119
-3.059608
-3.395190
-3.399560
-3.133443
-2.689582
-2.174392
-1.657606
-1.095650
-0.310830
0.856321
2.363815
3.908635
4.995493
5.201533
4.428113
2.921412
1.162327
-0.350971
-1.292260
-1.547167
-1.196125
-0.472667
0.303305
0.854830
1.068127
1.002571
0.822168
0.646791
0.450813
0.152029
-0.255220
-0.657727
-0.867672
-0.771351
-0.446484
-0.100344
0.060043
-0.052759
-0.342730
-0.599670
-0.629461
-0.398602
-0.092049
0.060102
-0.010319
-0.164307
-0.141790
0.210576
0.776332
1.293849
1.555988
1.504565
1.224587
0.816333
0.276916
-0.465183
-1.402480
-2.232729
-2.328386
-1.214680
0.949723
3.452375
5.424355
6.395894
6.582001
6.422242
6.087168
5.576842
4.941047
4.181200
3.077775
1.269908
-1.491395
-5.012636
-8.544350
-11.242395
-12.630291
-12.537669
-10.930280
-8.003764
-4.335827
-0.793086
1.760845
2.926437
3.037580
2.775258
2.627618
2.648526
2.517603
1.975996
1.139363
0.220280
-0.803205
-2.042023
-3.362935
-4.215423
-3.808637
-1.869630
0.825387
3.066047
4.094339
3.961340
3.428962
3.337741
4.015644
5.236030
6.419997
6.938236
6.378615
4.689066
2.223723
-0.391804
-2.473774
-3.547184
-3.576217
-2.998384
-2.574958
-2.959010
-4.315015
-6.340211
-8.431527
-9.867876
-10.014510
-8.604297
-5.950435
-2.815339
-0.063720
1.841273
3.116476
4.244389
5.478292
6.803409
8.069769
9.053607
9.443374
8.842694
6.928591
3.883570
0.633144
-1.712092
-2.586892
-2.256744
-1.670599
-1.724224
-2.596377
-3.823846
-4.712072
-4.834112
-4.322612
-3.611038
-3.030191
-2.586012
-1.973422
-0.958651
0.260510
1.117833
0.969964
-0.482943
-2.912044
-5.532422
-7.437380
-7.930418
-6.785742
-4.326846
-1.353804
1.204243
2.693901
2.990268
2.533582
1.953092
1.647299
1.658177
1.753369
1.725690
1.649982
1.822613
2.521583
3.667887
4.660314
4.744924
3.513667
1.162369
-1.531282
-3.672047
-4.712297
-4.526349
-3.316087
-1.464836
0.602413
2.542714
4.168561
5.390821
6.137187
6.332799
5.923039
4.926646
3.470553
1.759268
0.031754
-1.472989
-2.585752
-3.334665
-3.959547
-4.614040
-5.132994
-5.267218
-4.992360
-4.486047
-3.903519
-3.094769
-1.568614
0.950613
4.032273
6.803361
8.432334
8.416213
6.749961
4.005702
1.246669
-0.482489
-0.721971
0.210867
1.419970
2.156314
2.303695
1.887412
0.608138
-1.643839
-4.177549
-5.805779
-5.606427
-3.666042
-1.220862
0.523518
1.458498
2.106847
2.759205
3.241268
3.133597
2.290226
1.153053
0.371277
0.292174
0.814720
1.465145
1.657586
0.996749
-0.482968
-2.276305
-3.810489
-4.856804
-5.517942
-6.014137
-6.424278
-6.559753
-6.165209
-5.165126
-3.718849
-2.175299
-0.957768
-0.411093
-0.613336
-1.274372
-1.923927
-2.192380
-2.008872
-1.625792
-1.313623
-1.067666
-0.672419
0.068136
1.091510
2.012166
2.459389
2.429006
2.258243
2.401263
3.117686
4.289004
5.590006
6.701476
7.312202
7.072753
5.692444
3.130494
-0.204956
-3.430543
-5.613680
-6.265854
-5.527582
-4.104128
-2.863824
-2.397863
-2.789558
-3.573744
-4.014031
-3.475125
-1.741925
0.820932
3.490423
5.529977
6.493603
6.401932
5.620759
4.616350
3.683665
2.804716
1.852797
0.863277
0.109528
-0.007485
0.701206
1.960665
3.216770
3.952599
3.898998
3.118908
1.901625
0.610371
-0.445869
-1.110285
-1.413094
-1.542820
-1.705038
-1.994123
-2.396431
-2.822230
-3.095545
-2.961435
-2.213805
-0.867755
0.733109
1.967260
2.313893
1.721739
0.598489
-0.414953
-0.824476
-0.574153
0.017293
0.459636
0.329286
-0.533585
-1.957177
-3.478045
-4.567994
-4.890612
-4.436709
-3.523744
-2.566375
-1.838658
-1.424022
-1.258257
-1.217878
-1.188304
-1.068782
-0.764327
-0.202016
0.642883
1.722924
2.889953
3.874040
4.321059
3.978403
2.886757
1.403534
0.085899
-0.606313
-0.562734
0.015757
0.776545
1.394040
1.679071
1.538572
0.933401
-0.051928
-1.144292
-1.979255
-2.281549
-2.045601
-1.581265
-1.236993
-1.115799
-1.098825
-1.012948
-0.814179
-0.649023
-0.643174
-0.694281
-0.549552
-0.008547
0.883943
1.775323
2.249954
2.138063
1.651070
1.305903
1.515306
2.226732
3.020923
3.415304
3.189360
2.527023
1.733003
0.923739
0.050268
-0.957103
-2.092323
-3.237772
-4.193385
-4.721129
-4.607032
-3.757322
-2.330896
-0.774538
0.429385
1.036254
1.068602
0.721076
0.208839
-0.341275
-0.871655
-1.344243
-1.726628
-1.994927
-2.133587
-2.139386
-2.037573
-1.876670
-1.665976
-1.334279
-0.803511
-0.087428
0.676158
1.254218
1.433405
1.140053
0.488013
-0.233541
-0.671112
-0.550876
0.191578
1.347434
2.539999
3.383901
3.626353
3.242804
2.425082
1.504677
0.799062
0.474188
0.525915
0.824712
1.206227
1.540338
1.721533
1.650371
1.266779
0.597443
-0.231710
-1.020062
-1.573812
-1.788074
-1.673284
-1.343850
-0.958075
-0.646927
-0.459315
-0.338846
-0.173463
0.129745
0.582803
1.101657
1.587755
2.005062
2.350968
2.586672
2.592647
2.187382
1.266186
-0.069333
-1.532801
-2.752229
-3.416164
-3.394653
-2.760710
-1.765938
-0.770873
-0.147042
-0.137459
-0.735523
-1.685039
-2.578291
-3.080970
-3.113557
-2.792086
-2.273618
-1.618807
-0.761708
0.304311
1.358680
2.054444
2.137607
1.652714
0.999011
0.639032
0.764398
1.214150
1.583268
1.536638
1.065183
0.413196
-0.118119
-0.349369
-0.307867
-0.126832
0.078563
0.236130
0.305298
0.284439
0.230151
0.255803
0.490237
0.969742
1.558160
2.016066
2.127789
1.818486
1.212044
0.552023
0.085926
-0.020831
0.264603
0.848574
1.536172
2.076677
2.232290
1.887800
1.140089
0.266686
-0.389445
-0.620622
-0.501381
-0.302563
-0.309730
-0.637856
-1.136305
-1.519764
-1.557908
-1.193416
-0.567620
0.102117
0.649414
0.972489
1.008001
0.730672
0.187951
-0.447782
-0.898551
-0.980454
-0.779240
-0.564791
-0.595529
-0.934221
-1.380749
-1.662391
-1.643385
-1.343125
-0.871663
-0.357313
0.101579
0.446095
0.657921
0.760480
0.805789
0.826572
0.803095
0.703524
0.538247
0.368170
0.277047
0.307904
0.414960
0.493526
0.448250
0.271414
0.075592
0.001500
0.100542
0.289376
0.381975
0.233092
-0.140967
-0.602064
-0.982889
-1.153026
-1.048948
-0.662841
-0.040651
0.684769
1.293437
1.595382
1.546427
1.228663
0.765550
0.226815
-0.403796
-1.119095
-1.791756
-2.247359
-2.387670
-2.248712
-1.982419
-1.732313
-1.528433
-1.323895
-1.073664
-0.774921
-0.469516
-0.206195
-0.009214
0.110443
0.138676
0.072050
-0.059462
-0.189393
-0.236497
-0.163162
-0.022187
0.069770
-0.003118
-0.273377
-0.641174
-0.930386
-0.980629
-0.725911
-0.232394
