EVENT_NAME: None
EVENT_ID: INT-37989201
EVENT_DATE_YYYYMMDD: 20240327
EVENT_TIME_HHMMSS: 211936
EVENT_LATITUDE_DEGREE: 46.3583
EVENT_LONGITUDE_DEGREE: 12.8308
EVENT_DEPTH_KM: 7.0
HYPOCENTER_REFERENCE: INGV-BULLETIN
MAGNITUDE_W: 4.1
MAGNITUDE_W_REFERENCE: INGV-TERREMOTI
MAGNITUDE_L: 
MAGNITUDE_L_REFERENCE: 
FOCAL_MECHANISM: Thrust faulting
NETWORK: IV
STATION_CODE: STAL
STATION_NAME: Staligial
STATION_LATITUDE_DEGREE: 46.260100
STATION_LONGITUDE_DEGREE: 12.710400
STATION_ELEVATION_M: 625
LOCATION: 
SENSOR_DEPTH_M: 0.0
VS30_M/S: 
SITE_CLASSIFICATION_EC8: B (inferred from geology)
MORPHOLOGIC_CLASSIFICATION: 
EPICENTRAL_DISTANCE_KM: 14.3
EARTHQUAKE_BACKAZIMUTH_DEGREE: 220.4
DATE_TIME_FIRST_SAMPLE_YYYYMMDD_HHMMSS: 20240327_211919.770
DATE_TIME_FIRST_SAMPLE_PRECISION: milliseconds
SAMPLING_INTERVAL_S: 0.005000
NDATA: 20670
DURATION_S: 103.350
STREAM: HNN
UNITS: cm/s^2
INSTRUMENT: HN
INSTRUMENT_ANALOG/DIGITAL: D
INSTRUMENTAL_FREQUENCY_HZ: 
INSTRUMENTAL_DAMPING: 
FULL_SCALE_G: 
N_BIT_DIGITAL_CONVERTER: 
PGA_CM/S^2: 44.197207
TIME_PGA_S: 22.815000
BASELINE_CORRECTION: BASELINE REMOVED
FILTER_TYPE: BUTTERWORTH
FILTER_ORDER: 2
LOW_CUT_FREQUENCY_HZ: 0.100
HIGH_CUT_FREQUENCY_HZ: 40.000
LATE/NORMAL_TRIGGERED: NT
DATABASE_VERSION: 0.5
HEADER_FORMAT: DYNA 1.2
DATA_TYPE: ACCELERATION
PROCESSING: manual (Paolucci et al., 2011)
DATA_TIMESTAMP_YYYYMMDD_HHMMSS: 20240521_175642.908
DATA_LICENSE: D (network default license)
DATA_CITATION: Luzi L., Lanzano G., Felicetta C., D Amico M. C., Russo E., Sgobba S., Pacor, F., & ORFEUS Working Group 5 (2020). Engineering Strong Motion Database (ESM) (Version 2.0). Istituto Nazionale di Geofisica e Vulcanologia (INGV). https://doi.org/10.13127/ESM.2
DATA_CREATOR: ESM working group
ORIGINAL_DATA_MEDIATOR_CITATION: webservices.ingv.it
ORIGINAL_DATA_MEDIATOR: webservices.ingv.it
ORIGINAL_DATA_CREATOR_CITATION: INGV Seismological Data Centre. (1997). Rete Sismica Nazionale (RSN). Istituto Nazionale di Geofisica e Vulcanologia (INGV), Italy. https://doi.org/10.13127/SD/X0FXnH7QfY http://www.fdsn.org/networks/detail/IV/
ORIGINAL_DATA_CREATOR: network: IV (Italian National Seismic Network (INSN)); owner: Istituto Nazionale di Geofisica e Vulcanologia (INGV)
USER1: 
USER2: 
USER3: 
USER4: 
USER5: 
[...]
-0.000308
0.000021
0.000435
0.000243
-0.000200
-0.000314
-0.000054
0.000072
-0.000137
-0.000321
-0.000272
-0.000125
0.000041
0.000442
0.000910
0.000743
-0.000070
-0.000660
-0.000466
0.000078
0.000233
-0.000086
-0.000562
-0.001002
-0.001305
-0.001263
-0.000681
0.000005
0.000299
0.000690
0.001400
0.001519
0.000833
0.000252
0.000184
0.000209
0.000053
-0.000024
0.000055
-0.000020
-0.000207
-0.000398
-0.000627
-0.000425
0.000424
0.001076
0.001191
0.001569
0.002153
0.001840
0.000606
-0.000319
-0.000358
-0.000223
-0.000408
-0.000457
-0.000328
-0.000698
-0.001424
-0.001655
-0.001362
-0.001057
-0.000839
-0.000600
-0.000426
-0.000595
-0.000887
-0.000651
-0.000137
-0.000005
-0.000128
-0.000071
0.000382
0.000855
0.000819
0.000763
0.001266
0.001786
0.001879
0.001866
0.001884
0.001765
0.001329
0.000442
-0.000726
-0.001693
-0.001967
-0.001520
-0.000966
-0.000759
-0.000560
-0.000005
0.000449
0.000355
0.000302
0.000680
0.000784
0.000480
0.000490
0.000904
0.001264
0.001138
0.000511
-0.000025
-0.000020
0.000362
0.000538
0.000083
-0.000736
-0.001199
-0.000906
-0.000424
-0.000503
-0.000753
-0.000316
0.000696
0.001307
0.000905
0.000085
-0.000140
0.000243
0.000460
0.000122
-0.000442
-0.000531
0.000110
0.000952
0.001340
0.000885
-0.000057
-0.000508
-0.000412
-0.000379
-0.000289
0.000058
0.000415
0.000602
0.000462
0.000025
-0.000460
-0.000726
-0.000356
0.000540
0.001114
0.001056
0.000898
0.001095
0.001440
0.001284
0.000487
-0.000271
-0.000341
0.000163
0.000334
-0.000344
-0.001010
-0.000740
0.000133
0.000539
-0.000058
-0.000916
-0.001127
-0.000859
-0.000400
0.000360
0.000963
0.000780
0.000174
0.000101
0.000656
0.000958
0.000788
0.000665
0.000591
0.000543
0.000767
0.000978
0.000761
0.000170
-0.000561
-0.001194
-0.001598
-0.001807
-0.001780
-0.001552
-0.001469
-0.001499
-0.000964
0.000315
0.001408
0.001386
0.000589
0.000050
0.000025
0.000134
0.000176
0.000106
-0.000101
-0.000496
-0.001160
-0.001706
-0.001410
-0.000467
0.000202
0.000394
0.000415
0.000426
0.000694
0.001299
0.001669
0.001447
0.000972
0.000387
-0.000252
-0.000663
-0.000912
-0.000951
-0.000582
-0.000070
0.000325
0.000579
0.000731
0.000946
0.001243
0.001190
0.000575
-0.000040
-0.000328
-0.000389
0.000085
0.001012
0.001508
0.001181
0.000584
0.000172
-0.000310
-0.000971
-0.001330
-0.000958
0.000147
0.001343
0.001750
0.001211
0.000376
-0.000116
-0.000150
0.000155
0.000767
0.001355
0.001296
0.000753
0.000457
0.000432
0.000234
-0.000388
-0.001180
-0.001222
-0.000083
0.001242
0.001427
0.000449
-0.000404
-0.000219
0.000543
0.001088
0.001325
0.001558
0.001881
0.001947
0.001405
0.000616
0.000418
0.001038
0.001710
0.001483
0.000307
-0.000703
-0.000776
-0.000500
-0.000210
0.000450
0.000977
0.000687
0.000308
0.000709
0.001283
0.001165
0.000645
0.000395
0.000348
0.000073
-0.000242
-0.000245
-0.000220
-0.000247
-0.000082
-0.000224
-0.001011
-0.001607
-0.001230
-0.000202
0.000658
0.001202
0.001667
0.001665
0.001000
0.000490
0.000621
0.000711
0.000323
-0.000023
-0.000088
-0.000148
-0.000020
0.000358
0.000448
0.000355
0.000808
0.001744
0.002194
0.001636
0.000827
0.000597
0.000579
0.000168
-0.000295
-0.000312
-0.000107
0.000026
0.000127
0.000253
0.000426
0.000370
-0.000276
-0.000862
-0.000445
0.000644
0.001418
0.001352
0.000778
0.000535
0.000475
-0.000245
-0.001022
-0.000517
0.000735
0.001131
0.000632
0.000213
0.000065
-0.000022
-0.000055
-0.000061
0.000006
0.000410
0.001074
0.001263
0.000658
-0.000001
-0.000135
-0.000002
0.000141
0.000235
0.000157
0.000221
0.000764
0.001338
0.001499
0.001416
0.001223
0.000937
0.000697
0.000293
-0.000575
-0.001461
-0.001637
-0.001132
-0.000672
-0.000618
-0.000242
0.000891
0.001737
0.001718
0.001632
0.001657
0.001070
0.000025
-0.000302
0.000417
0.001081
0.000876
0.000354
0.000373
0.000657
0.000411
-0.000130
-0.000338
-0.000299
-0.000211
-0.000044
0.000108
0.000149
0.000231
0.000550
0.000856
0.000660
0.000111
-0.000131
0.000109
0.000378
0.000495
0.000814
0.001340
0.001626
0.001619
0.001440
0.000924
0.000192
-0.000390
-0.000883
-0.001401
-0.001564
-0.001110
-0.000403
0.000121
0.000288
0.000291
0.000588
0.001161
0.001463
0.001410
0.001561
0.001926
0.001832
0.001111
0.000246
-0.000068
0.000572
0.001778
0.002996
0.003665
0.003219
0.002318
0.001894
0.001343
0.000236
-0.000516
-0.000391
0.000009
0.000043
-0.000226
-0.000525
-0.000794
-0.000795
-0.000271
0.000408
0.000696
0.000563
0.000223
-0.000181
-0.000593
-0.000759
-0.000253
0.000813
0.001723
0.001944
0.001744
0.001562
0.001333
0.000960
0.000530
0.000108
-0.000308
-0.000672
-0.000878
-0.000897
-0.000458
0.000754
0.002175
0.002658
0.001865
0.000804
0.000526
0.000859
0.001202
0.001359
0.001166
0.000570
-0.000151
-0.000627
-0.000508
0.000164
0.000748
0.000747
0.000410
0.000299
0.000397
0.000049
-0.000900
-0.001576
-0.001281
-0.000524
-0.000081
-0.000038
-0.000299
-0.000496
-0.000070
0.000771
0.001550
0.001869
0.001232
0.000214
-0.000090
0.000186
0.000416
0.000362
-0.000205
-0.001062
-0.001305
-0.000590
0.000298
0.000630
0.000559
0.000511
0.000691
0.001092
0.001490
0.001794
0.002041
0.001954
0.001377
0.000577
-0.000247
-0.000702
-0.000263
0.000568
0.000897
0.000815
0.000640
0.000309
-0.000246
-0.001046
-0.001930
-0.002432
-0.002093
-0.001280
-0.000912
-0.000910
-0.000397
0.000703
0.001511
0.001482
0.000991
0.000572
0.000408
0.000381
0.000235
-0.000017
-0.000090
0.000008
0.000105
0.000229
0.000153
-0.000300
-0.000758
-0.000931
-0.000879
-0.000785
-0.000750
-0.000605
-0.000061
0.000893
0.001702
0.001745
0.000972
-0.000159
-0.000896
-0.000692
0.000031
0.000313
0.000118
0.000225
0.000537
0.000280
-0.000113
0.000391
0.001299
0.001257
0.000230
-0.000568
-0.000399
0.000313
0.000606
0.000078
-0.000691
-0.001143
-0.001008
-0.000161
0.000628
0.000599
0.000215
0.000191
0.000494
0.000683
0.000570
0.000162
-0.000301
-0.000230
0.000473
0.001330
0.001979
0.002199
0.001932
0.001297
0.000492
-0.000173
-0.000396
-0.000133
0.000219
0.000410
0.000832
0.001513
0.001751
0.001473
0.001274
0.001064
0.000436
-0.000108
0.000056
0.000441
0.000472
0.000494
0.000731
0.000679
-0.000031
-0.000945
-0.001282
-0.001168
-0.001130
-0.000767
0.000013
0.000252
-0.000198
-0.000440
0.000052
0.001074
0.002031
0.002467
0.002042
0.000758
-0.000189
0.000177
0.001150
0.001786
0.001806
0.001296
0.000884
0.001132
0.001495
0.001082
0.000226
-0.000016
0.000222
-0.000061
-0.000804
-0.001161
-0.000833
-0.000236
0.000033
0.000048
0.000169
0.000161
-0.000016
-0.000042
-0.000062
-0.000212
-0.000186
0.000008
0.000034
0.000152
0.000465
0.000400
0.000166
0.000342
0.000667
0.000685
0.000288
-0.000161
-0.000301
-0.000476
-0.000852
-0.000937
-0.000556
0.000003
0.000378
0.000308
-0.000062
-0.000269
0.000065
0.000677
0.000772
0.000173
-0.000370
-0.000434
-0.000274
0.000178
0.000769
0.000773
0.000257
-0.000185
-0.000573
-0.000995
-0.001061
-0.000676
-0.000249
0.000094
0.000531
0.001119
0.001596
0.001483
0.000882
0.000615
0.000847
0.000776
0.000158
-0.000427
-0.000612
-0.000613
-0.000694
-0.000502
0.000121
0.000461
0.000175
-0.000218
-0.000536
-0.001173
-0.001928
-0.001914
-0.000982
-0.000242
-0.000525
-0.001215
-0.001152
0.000110
0.001640
0.001954
0.001084
0.000173
-0.000140
0.000493
0.001857
0.002640
0.001964
0.000766
0.000336
0.000644
0.001059
0.001187
0.000654
-0.000554
-0.001646
-0.001805
-0.001136
-0.000284
0.000264
0.000226
-0.000335
-0.000857
-0.000608
0.000492
0.001539
0.001644
0.000885
0.000005
-0.000487
-0.000660
-0.000894
-0.001437
-0.001913
-0.001654
-0.000640
0.000310
0.000344
-0.000399
-0.001024
-0.001094
-0.000855
-0.000505
-0.000077
0.000410
0.000984
0.001259
0.000801
0.000203
0.000216
0.000483
0.000575
0.000687
0.000701
0.000405
0.000074
-0.000070
-0.000052
0.000056
-0.000014
-0.000502
-0.001040
-0.001156
-0.001000
-0.000754
-0.000458
-0.000396
-0.000622
-0.000815
-0.001077
-0.001971
-0.004122
-0.008493
-0.015563
-0.024278
-0.033028
-0.039676
-0.040912
-0.034841
-0.023386
-0.011341
-0.003955
-0.004544
-0.015931
-0.043994
-0.095764
-0.172620
-0.263658
-0.345873
-0.397725
-0.416678
-0.418826
-0.415828
-0.395421
-0.334617
-0.237580
-0.153383
-0.141835
-0.220228
-0.355836
-0.507825
-0.660713
-0.816499
-0.962353
-1.049259
-1.017801
-0.866948
-0.683857
-0.556905
-0.439021
-0.155545
0.370829
0.930261
1.168815
0.947503
0.526484
0.359394
0.634196
1.033095
1.096125
0.849396
0.872423
1.597428
2.654490
3.110353
2.468232
1.348098
0.886404
1.372888
1.760774
0.774419
-1.502747
-3.452840
-3.650906
-2.512960
-1.802899
-2.589458
-3.963668
-3.977296
-1.914395
0.705972
1.710871
0.676044
-0.609199
-0.209922
1.738279
3.357973
3.373184
2.462851
2.208312
3.145952
4.137764
3.672506
1.635366
-0.501178
-1.350071
-1.066293
-0.806344
-1.200110
-1.904620
-2.392283
-2.618183
-2.862080
-3.218109
-3.450994
-3.357487
-3.137534
-3.224151
-3.669698
-3.905818
-3.264886
-1.580941
0.707595
2.940356
4.837761
6.562954
8.060411
8.798869
8.350746
6.847613
4.809240
2.773176
1.036157
-0.448758
-1.903470
-3.362969
-4.508400
-4.950543
-4.723138
-4.354040
-4.268882
-4.259968
-3.819622
-2.954316
-2.354318
-2.540014
-3.018096
-2.712497
-1.193354
0.985049
3.073923
4.727488
5.869710
6.444301
6.403838
5.828796
5.016863
4.256242
3.403803
2.041871
0.221260
-1.371328
-2.176429
-2.401907
-2.815280
-3.965358
-5.577173
-6.799499
-7.038669
-6.407005
-5.425526
-4.396700
-3.050837
-0.818679
2.457831
6.037460
8.631888
9.388921
8.568885
7.272637
6.428514
5.922575
4.788704
2.411648
-0.662941
-3.416676
-5.475374
-7.080847
-8.329084
-8.928070
-8.635802
-7.688319
-6.630619
-5.718778
-4.621240
-2.756589
0.053951
3.216638
5.734592
7.023571
7.203703
6.574190
5.231619
3.422577
1.811028
1.005489
1.038898
1.514159
2.050111
2.469625
2.700062
2.587763
1.901048
0.613632
-0.892769
-2.069788
-2.734001
-3.313281
-4.410075
-6.025149
-7.308862
-7.263240
-5.723891
-3.523193
-1.668484
-0.512481
0.312145
1.436516
3.212311
5.302271
6.811533
7.032049
6.085025
4.791352
3.900448
3.431780
2.814479
1.646714
0.090688
-1.502466
-2.995363
-4.379433
-5.523286
-6.052210
-5.507634
-3.840612
-1.665276
0.264118
1.729295
3.001983
4.314330
5.571133
6.431635
6.505307
5.526709
3.468771
0.571876
-2.729428
-5.931193
-8.496259
-9.920775
-10.016709
-9.077626
-7.586637
-5.780500
-3.608032
-1.110913
1.310555
3.103722
3.932895
3.780544
2.851811
1.558807
0.499562
0.194486
0.731029
1.692907
2.446272
2.529378
1.872595
0.809187
-0.064123
-0.267694
0.144969
0.635937
0.668295
0.150480
-0.524158
-0.878348
-0.734253
-0.156829
0.797237
2.151456
3.905223
5.887636
7.730844
9.008501
9.376991
8.633627
6.711184
3.715900
0.120897
-3.179688
-5.319116
-6.120866
-6.255643
-6.563739
-7.169840
-7.451226
-6.971388
-6.170307
-5.796992
-5.754631
-4.972717
-2.712896
0.294411
2.517250
3.329502
3.517930
4.021798
4.697757
4.662235
3.516395
1.778923
0.192710
-1.002429
-1.992170
-2.821323
-3.187038
-2.858429
-2.066262
-1.305395
-0.941607
-1.114904
-1.770484
-2.660651
-3.451148
-3.842043
-3.634933
-2.862828
-1.738352
-0.369619
1.198840
2.743530
4.068640
5.295769
6.589072
7.772540
8.462517
8.390975
7.499937
5.960374
4.115763
2.223316
0.369451
-1.262723
-2.347211
-2.792130
-2.907901
-3.080258
-3.348906
-3.275967
-2.326906
-0.579828
1.096805
1.822288
1.519335
0.803453
0.300907
0.237995
0.430006
0.419548
-0.248458
-1.603408
-3.006433
-3.591867
-3.198383
-2.655347
-2.897645
-3.897050
-4.582233
-3.857038
-1.748161
0.575253
1.979984
2.307034
2.078671
1.743171
1.493555
1.491845
1.894779
2.595930
3.083060
2.797284
1.700488
0.347461
-0.640231
-1.138208
-1.614357
-2.649572
-4.222989
-5.483417
-5.460619
-4.063302
-2.171427
-0.772971
-0.204773
-0.103213
0.098058
0.621480
1.279134
1.818545
2.141485
2.240686
2.131305
1.903479
1.765293
1.945983
2.475822
3.075326
3.329732
2.988314
2.161137
1.265649
0.657388
0.291082
-0.081380
-0.472526
-0.778525
-1.205789
-2.065409
-3.158701
-3.706394
-2.909317
-0.592962
2.525671
5.251188
6.820095
7.448105
7.850356
8.309053
8.461607
7.937266
6.865114
5.656749
4.536648
3.482176
2.492572
1.672129
1.028997
0.406075
-0.242214
-0.658329
-0.568606
-0.034765
0.723862
1.774762
3.458628
5.844254
8.258094
9.459016
8.513456
5.649276
2.123959
-0.878721
-3.190541
-5.501253
-8.396627
-11.635740
-14.276299
-15.378875
-14.621543
-12.435454
-9.693061
-7.174599
-5.171472
-3.523782
-2.016343
-0.782894
-0.387265
-1.486683
-4.411751
-9.040809
-14.797224
-20.586857
-24.998965
-26.859016
-25.675943
-21.632744
-15.213877
-6.898868
2.767154
12.942887
22.407527
29.756250
33.911764
34.448604
31.304135
24.487612
14.340416
1.953575
-10.805838
-21.861045
-29.830431
-34.436672
-35.942990
-34.411435
-29.637597
-21.535875
-10.526688
2.252921
15.107987
26.385767
35.140291
41.133834
44.197207
43.910697
39.965835
32.611549
22.692679
11.350788
-0.295009
-11.317096
-20.998813
-28.709324
-33.677508
-34.956482
-31.926658
-25.112710
-16.395844
-8.008092
-1.202067
3.978277
7.890458
10.561427
11.609082
10.660711
7.859050
4.013822
0.163188
-3.044199
-5.439814
-7.010799
-7.831267
-8.141234
-8.113995
-7.631881
-6.425862
-4.258961
-0.969876
3.414296
8.508383
13.580531
17.804440
20.565906
21.647514
21.229140
19.720591
17.611442
15.463456
13.876575
13.247698
13.372545
13.304271
12.001502
9.357029
6.251855
3.327177
0.046569
-4.655906
-10.940326
-17.485749
-22.248122
-23.760190
-22.058993
-18.667001
-15.431785
-13.058451
-10.814683
-7.658006
-3.474007
0.681720
3.277700
3.349553
1.212710
-1.719875
-3.869045
-4.403085
-3.491976
-1.863513
-0.194673
1.188684
2.354650
3.657358
5.340726
7.108608
8.256684
8.319884
7.544658
6.696924
6.389882
6.579642
6.695225
6.242032
5.223089
3.965554
2.645339
1.051300
-1.192238
-4.212261
-7.721849
-11.239863
-14.450995
-17.354669
-20.097543
-22.628331
-24.401823
-24.475301
-22.143465
-17.582803
-11.718982
-5.444002
0.766577
6.423405
10.634211
12.564965
12.327767
11.116249
10.132960
9.401633
7.929179
4.995956
0.960650
-3.121823
-6.294128
-8.091033
-8.448829
-7.421295
-5.054528
-1.522539
2.778841
7.349640
11.662067
15.067996
16.910139
17.075349
16.316046
15.605123
15.171717
14.478834
13.074284
11.112247
9.063124
7.240426
5.731956
4.643696
4.207407
4.570828
5.505769
6.358861
6.445345
5.616864
4.304805
2.926685
1.411032
-0.591464
-3.087346
-5.486287
-7.129326
-8.010371
-8.748604
-9.856277
-11.199453
-12.135422
-12.112786
-11.234561
-10.218272
-9.638885
-9.217970
-8.022190
-5.407150
-1.749896
1.738538
3.963885
4.765695
4.898543
5.347643
6.606181
8.340828
9.510586
8.861444
5.656241
0.244591
-6.022259
-11.570426
-15.481937
-17.763578
-18.895237
-19.274934
-19.102265
-18.491551
-17.468010
-15.995529
-14.118137
-11.955841
-9.554223
-6.863209
-3.869015
-0.674062
2.560484
5.682200
8.473001
10.559402
11.582506
11.511789
10.688312
9.538837
8.322060
7.116378
5.881099
4.473333
2.752921
0.787954
-1.053660
-2.220390
-2.208994
-0.870921
1.335591
3.480897
4.746388
4.996338
4.808969
4.892182
5.412356
5.903115
5.780389
4.824998
3.250831
1.527522
0.104185
-0.829108
-1.325710
-1.533855
-1.626845
-1.682091
-1.522063
-0.862884
0.293442
1.554791
2.447661
2.732193
2.504771
2.175869
2.253121
2.872751
3.507383
3.329532
1.958559
-0.191862
-2.261421
-3.550615
-3.886037
-3.621010
-3.356862
-3.513524
-4.037105
-4.509271
-4.535503
-4.052912
-3.343877
-2.804370
-2.656341
-2.764233
-2.687078
-2.029816
-0.850994
0.326094
0.972263
0.977097
0.624593
0.319301
0.441151
1.301133
2.990456
5.248033
7.580744
9.521699
10.817970
11.532633
11.993971
12.488682
12.917020
12.805101
11.697370
9.520910
6.588970
3.318825
0.000139
-3.141029
-5.711533
-7.160507
-7.163840
-5.994132
-4.449538
-3.362083
-3.101771
-3.486676
-4.100005
-4.651040
-5.080039
-5.428080
-5.693900
-5.796219
-5.575006
-4.828941
-3.483814
-1.803346
-0.359364
0.357457
0.354338
0.108680
0.125702
0.556754
1.192830
1.719892
1.931292
1.817320
1.611282
1.660276
2.069581
2.504276
2.420166
1.466276
-0.292042
-2.434476
-4.450614
-5.972771
-6.796491
-6.828031
-6.141057
-5.010867
-3.766163
-2.613927
-1.642059
-0.913815
-0.472230
-0.285937
-0.266547
-0.331528
-0.399997
-0.360270
-0.118564
0.331191
0.947472
1.739002
2.722603
3.751805
4.525530
4.881106
4.995040
5.152626
5.340473
5.207278
4.444364
3.090941
1.464171
-0.057558
-1.143967
-1.605705
-1.540234
-1.296912
-1.136966
-0.922405
-0.241050
1.123543
2.898959
4.513759
5.506149
5.716313
5.188257
4.046480
2.516879
0.927042
-0.498219
-1.833071
-3.308526
-4.986209
-6.665325
-8.059899
-8.972814
-9.312434
-9.010171
-7.981678
-6.198379
-3.805829
-1.161698
1.311666
3.345895
4.804444
5.431534
4.836802
2.897737
0.090304
-2.711979
-4.752953
-5.720577
-5.725179
-5.076183
-4.051057
-2.828081
-1.590714
-0.574649
0.083953
0.505328
0.982301
1.701837
2.537414
3.104017
3.030274
2.237784
1.017334
-0.169897
-1.001986
-1.441184
-1.649734
-1.850981
-2.218448
-2.745547
-3.190996
-3.235062
-2.725599
-1.775461
-0.662649
0.330434
1.015919
1.326932
1.318546
1.164927
1.104344
1.286573
1.628486
1.858105
1.770624
1.477874
1.344281
1.627489
2.261486
3.021500
3.760691
4.400269
4.825746
4.935300
4.707287
4.117426
3.106181
1.750609
0.377116
-0.605446
-0.957231
-0.707929
-0.127897
0.398917
0.631643
0.666855
0.793118
1.128394
1.476322
1.550638
1.251822
0.688936
0.014469
-0.699020
-1.455521
-2.229956
-2.860522
-3.119952
-2.946267
-2.531623
-2.103354
-1.656857
-1.017173
-0.155680
0.698890
1.325603
1.783904
2.323595
3.073291
3.889187
4.471519
4.583254
4.189955
3.449103
2.589153
1.783319
1.102695
0.537670
0.019341
-0.574878
-1.370105
-2.392100
-3.531418
-4.624921
-5.534183
-6.124782
-6.238639
-5.775366
-4.802995
-3.556429
-2.340661
-1.424810
-0.946006
-0.853345
-0.955121
-1.029292
-0.903994
-0.519261
0.030458
0.568490
0.986699
1.290183
1.505885
1.628586
1.702824
1.878571
2.254939
2.685631
2.861869
2.598919
1.977057
1.235318
0.608313
0.223970
0.046772
-0.095666
-0.378463
-0.846230
-1.402730
-1.917857
-2.334963
-2.672737
-2.955052
-3.188512
-3.370751
-3.426482
-3.159122
-2.373907
-1.063156
0.581792
2.324488
4.007138
5.550040
6.870431
7.817844
8.229697
8.074038
7.486633
6.634762
5.580394
4.288492
2.755268
1.141397
-0.243536
-1.147662
-1.561319
-1.659916
-1.597301
-1.407861
-1.105437
